{
"type": "FeatureCollection",
"name": "kma_neighborhoods",
"features": [
{ "type": "Feature", "properties": { "@id": "node/245707150", "@relations": [ { "role": "admin_centre", "rel": 9381363, "reltags": { "admin_level": "7", "alt_name:ar": "كلكتا;كالكوتا", "alt_name:ur": "کولکاتا;کولکاتہ", "boundary": "administrative", "name": "Kolkata", "name:ar": "كلكتة", "name:azb": "کلکته", "name:bn": "কলকাতা", "name:en": "Kolkata", "name:fa": "کلکته", "name:hi": "कोलकाता", "name:hr": "Kolkata", "name:kk-Arab": "كالكۋتتا", "name:ks": "کَلٕکَتا", "name:pnb": "کلکتا", "name:ps": "کلکته", "name:pt": "Calcutá", "name:sd": "ڪلڪتو", "name:sk": "Kalkata", "name:ur": "کلکتہ", "name:zh": "加尔各答", "type": "boundary", "wikidata": "Q1348", "wikipedia": "en:Kolkata", "wikipedia:ar": "كلكتا", "wikipedia:ks": "کَلٕکَتا", "wikipedia:pnb": "کلکتا", "wikipedia:ps": "کلکته", "wikipedia:sd": "ڪلڪتو", "wikipedia:ur": "کولکاتا" } } ], "name": null, "name:bn": null, "name:en": null, "place": null, "wikidata": null, "wikipedia": null, "wikimedia_commons": null, "alt_name": null, "alt_name:bn": null, "alt_name:en": null, "place:bn": null, "name:hi": null }, "geometry": { "type": "Point", "coordinates": [ 88.3638953, 22.5726459 ] } },
{ "type": "Feature", "properties": { "@id": "node/419272372", "@relations": null, "name": "Golf Green", "name:bn": "গল্ফগ্রীন", "name:en": "Golf Green", "place": "suburb", "wikidata": "Q5580583", "wikipedia": "en:Golf Green", "wikimedia_commons": null, "alt_name": null, "alt_name:bn": null, "alt_name:en": null, "place:bn": null, "name:hi": null }, "geometry": { "type": "Point", "coordinates": [ 88.3618382, 22.4913328 ] } },
{ "type": "Feature", "properties": { "@id": "node/419275145", "@relations": null, "name": "Jodhpur Park", "name:bn": "যোধপুর পার্ক", "name:en": "Jodhpur Park", "place": "suburb", "wikidata": null, "wikipedia": null, "wikimedia_commons": null, "alt_name": null, "alt_name:bn": null, "alt_name:en": null, "place:bn": null, "name:hi": null }, "geometry": { "type": "Point", "coordinates": [ 88.363674, 22.5056055 ] } },
{ "type": "Feature", "properties": { "@id": "node/419275337", "@relations": null, "name": "Jadavpur", "name:bn": "যাদবপুর", "name:en": "Jadavpur", "place": "suburb", "wikidata": "Q6121208", "wikipedia": "en:Jadavpur", "wikimedia_commons": "Category:Jadavpur", "alt_name": null, "alt_name:bn": null, "alt_name:en": null, "place:bn": null, "name:hi": null }, "geometry": { "type": "Point", "coordinates": [ 88.3709006, 22.495499 ] } },
{ "type": "Feature", "properties": { "@id": "node/419275394", "@relations": null, "name": "Dhakuria", "name:bn": "ঢাকুরিয়া", "name:en": "Dhakuria", "place": "suburb", "wikidata": null, "wikipedia": null, "wikimedia_commons": null, "alt_name": null, "alt_name:bn": null, "alt_name:en": null, "place:bn": null, "name:hi": null }, "geometry": { "type": "Point", "coordinates": [ 88.3673305, 22.507255 ] } },
{ "type": "Feature", "properties": { "@id": "node/419289392", "@relations": null, "name": "Kalighat", "name:bn": "কালীঘাট", "name:en": "Kalighat", "place": "suburb", "wikidata": "Q960803", "wikipedia": "en:Kalighat", "wikimedia_commons": "Category:Kalighat", "alt_name": null, "alt_name:bn": null, "alt_name:en": null, "place:bn": null, "name:hi": null }, "geometry": { "type": "Point", "coordinates": [ 88.3477052, 22.5153313 ] } },
{ "type": "Feature", "properties": { "@id": "node/1188948058", "@relations": null, "name": "Jorasanko East", "name:bn": "জোড়াসাঁকো পূর্ব", "name:en": "Jorasanko East", "place": "suburb", "wikidata": null, "wikipedia": null, "wikimedia_commons": null, "alt_name": null, "alt_name:bn": null, "alt_name:en": null, "place:bn": null, "name:hi": null }, "geometry": { "type": "Point", "coordinates": [ 88.3593328, 22.581261 ] } },
{ "type": "Feature", "properties": { "@id": "node/1188948117", "@relations": null, "name": "Girish Park", "name:bn": "গিরীশ পার্ক", "name:en": "Girish Park", "place": "suburb", "wikidata": "Q55612676", "wikipedia": "en:Girish Park", "wikimedia_commons": "Category:Girish Park", "alt_name": null, "alt_name:bn": null, "alt_name:en": null, "place:bn": null, "name:hi": null }, "geometry": { "type": "Point", "coordinates": [ 88.3640062, 22.5869942 ] } },
{ "type": "Feature", "properties": { "@id": "node/1188948149", "@relations": null, "name": "Machua Bazar", "name:bn": "মেছুয়াবাজার", "name:en": "Machua Bazar", "place": "suburb", "wikidata": null, "wikipedia": null, "wikimedia_commons": null, "alt_name": null, "alt_name:bn": null, "alt_name:en": null, "place:bn": null, "name:hi": null }, "geometry": { "type": "Point", "coordinates": [ 88.3632187, 22.580781 ] } },
{ "type": "Feature", "properties": { "@id": "node/1188948275", "@relations": null, "name": "Jorasanko", "name:bn": "জোড়াসাঁকো", "name:en": "Jorasanko", "place": "suburb", "wikidata": "Q6276260", "wikipedia": "en:Jorasanko", "wikimedia_commons": "Category:Jorasanko", "alt_name": null, "alt_name:bn": null, "alt_name:en": null, "place:bn": null, "name:hi": null }, "geometry": { "type": "Point", "coordinates": [ 88.3562514, 22.5834141 ] } },
{ "type": "Feature", "properties": { "@id": "node/1188948291", "@relations": null, "name": "Jorasanko North", "name:bn": "জোড়াসাঁকো উত্তর", "name:en": "Jorasanko North", "place": "suburb", "wikidata": null, "wikipedia": null, "wikimedia_commons": null, "alt_name": null, "alt_name:bn": null, "alt_name:en": null, "place:bn": null, "name:hi": null }, "geometry": { "type": "Point", "coordinates": [ 88.3585549, 22.5888342 ] } },
{ "type": "Feature", "properties": { "@id": "node/1188948346", "@relations": null, "name": "Jagganath Ghat", "name:bn": "জগন্নাথ ঘাট", "name:en": "Jagganath Ghat", "place": "suburb", "wikidata": null, "wikipedia": null, "wikimedia_commons": null, "alt_name": null, "alt_name:bn": null, "alt_name:en": null, "place:bn": null, "name:hi": null }, "geometry": { "type": "Point", "coordinates": [ 88.352572, 22.5845568 ] } },
{ "type": "Feature", "properties": { "@id": "node/1188948366", "@relations": null, "name": "Machua Bazar North", "name:bn": "মেছুয়াবাজার উত্তর", "name:en": "Machua Bazar North", "place": "suburb", "wikidata": null, "wikipedia": null, "wikimedia_commons": null, "alt_name": null, "alt_name:bn": null, "alt_name:en": null, "place:bn": null, "name:hi": null }, "geometry": { "type": "Point", "coordinates": [ 88.3625959, 22.5848342 ] } },
{ "type": "Feature", "properties": { "@id": "node/1189036474", "@relations": null, "name": "Central Avenue 2", "name:bn": "সেন্ট্রাল অ্যাভিনিউ ২", "name:en": "Central Avenue 2", "place": "suburb", "wikidata": null, "wikipedia": null, "wikimedia_commons": null, "alt_name": null, "alt_name:bn": null, "alt_name:en": null, "place:bn": null, "name:hi": null }, "geometry": { "type": "Point", "coordinates": [ 88.3591388, 22.5746122 ] } },
{ "type": "Feature", "properties": { "@id": "node/1189036587", "@relations": null, "name": "Tiretta", "name:bn": "টেরিটি", "name:en": "Tiretta", "place": "suburb", "wikidata": null, "wikipedia": null, "wikimedia_commons": null, "alt_name": null, "alt_name:bn": null, "alt_name:en": null, "place:bn": null, "name:hi": null }, "geometry": { "type": "Point", "coordinates": [ 88.3572092, 22.5769106 ] } },
{ "type": "Feature", "properties": { "@id": "node/1189036847", "@relations": null, "name": "Bara Bazar", "name:bn": "বড়বাজার", "name:en": "Bara Bazar", "place": "suburb", "wikidata": null, "wikipedia": null, "wikimedia_commons": null, "alt_name": null, "alt_name:bn": null, "alt_name:en": null, "place:bn": null, "name:hi": null }, "geometry": { "type": "Point", "coordinates": [ 88.3528098, 22.5801792 ] } },
{ "type": "Feature", "properties": { "@id": "node/1189036944", "@relations": null, "name": "B. B. D. Bagh", "name:bn": "বিনয়-বাদল-দীনেশ বাগ", "name:en": "B. B. D. Bagh", "place": "suburb", "wikidata": "Q3349530", "wikipedia": "en:B. B. D. Bagh", "wikimedia_commons": "Category:B. B. D. Bagh", "alt_name": "Benoy-Badal-Dinesh Bagh", "alt_name:bn": "বিবাদীবাগ", "alt_name:en": "Benoy-Badal-Dinesh Bagh", "place:bn": null, "name:hi": null }, "geometry": { "type": "Point", "coordinates": [ 88.3490528, 22.5719288 ] } },
{ "type": "Feature", "properties": { "@id": "node/1189512262", "@relations": null, "name": "Shobha Bazar", "name:bn": "শোভাবাজার", "name:en": "Shobha Bazar", "place": "suburb", "wikidata": "Q7499793", "wikipedia": "en:Shobhabazar", "wikimedia_commons": "Category:Shobhabazar", "alt_name": null, "alt_name:bn": null, "alt_name:en": null, "place:bn": null, "name:hi": null }, "geometry": { "type": "Point", "coordinates": [ 88.362514, 22.5940341 ] } },
{ "type": "Feature", "properties": { "@id": "node/1189512267", "@relations": null, "name": "Shobha Bazar East", "name:bn": "শোভাবাজার পূর্ব", "name:en": "Shobha Bazar East", "place": "suburb", "wikidata": null, "wikipedia": null, "wikimedia_commons": null, "alt_name": null, "alt_name:bn": null, "alt_name:en": null, "place:bn": null, "name:hi": null }, "geometry": { "type": "Point", "coordinates": [ 88.3667519, 22.5919534 ] } },
{ "type": "Feature", "properties": { "@id": "node/1190128273", "@relations": null, "name": "Bowbazar", "name:bn": "বউবাজার", "name:en": "Bowbazar", "place": "suburb", "wikidata": "Q4950708", "wikipedia": "en:Bowbazar", "wikimedia_commons": "Category:Bowbazar", "alt_name": null, "alt_name:bn": null, "alt_name:en": null, "place:bn": null, "name:hi": null }, "geometry": { "type": "Point", "coordinates": [ 88.3615602, 22.5704924 ] } },
{ "type": "Feature", "properties": { "@id": "node/1190128356", "@relations": null, "name": "Esplanade", "name:bn": "এসপ্ল্যানেড", "name:en": "Esplanade", "place": "suburb", "wikidata": "Q12057280", "wikipedia": "en:Esplanade, Kolkata", "wikimedia_commons": "Category:Esplanade, Kolkata", "alt_name": null, "alt_name:bn": null, "alt_name:en": null, "place:bn": null, "name:hi": null }, "geometry": { "type": "Point", "coordinates": [ 88.3503566, 22.563292 ] } },
{ "type": "Feature", "properties": { "@id": "node/1190128360", "@relations": null, "name": "Chandni Chowk", "name:bn": "চাঁদনী চক", "name:en": "Chandni Chowk", "place": "suburb", "wikidata": null, "wikipedia": null, "wikimedia_commons": null, "alt_name": null, "alt_name:bn": null, "alt_name:en": null, "place:bn": null, "name:hi": null }, "geometry": { "type": "Point", "coordinates": [ 88.3608177, 22.5640235 ] } },
{ "type": "Feature", "properties": { "@id": "node/1196068641", "@relations": null, "name": "Sealdah North", "name:bn": "শিয়ালদহ উত্তর", "name:en": "Sealdah North", "place": "suburb", "wikidata": null, "wikipedia": null, "wikimedia_commons": null, "alt_name": null, "alt_name:bn": null, "alt_name:en": null, "place:bn": null, "name:hi": null }, "geometry": { "type": "Point", "coordinates": [ 88.3699672, 22.5851079 ] } },
{ "type": "Feature", "properties": { "@id": "node/1196068665", "@relations": null, "name": "Bow Bazar North", "name:bn": "বউবাজার উত্তর", "name:en": "Bow Bazar North", "place": "suburb", "wikidata": null, "wikipedia": null, "wikimedia_commons": null, "alt_name": null, "alt_name:bn": null, "alt_name:en": null, "place:bn": null, "name:hi": null }, "geometry": { "type": "Point", "coordinates": [ 88.3660201, 22.576213 ] } },
{ "type": "Feature", "properties": { "@id": "node/1196068721", "@relations": null, "name": "City College", "name:bn": "সিটি কলেজ", "name:en": "City College", "place": "suburb", "wikidata": null, "wikipedia": null, "wikimedia_commons": null, "alt_name": null, "alt_name:bn": null, "alt_name:en": null, "place:bn": null, "name:hi": null }, "geometry": { "type": "Point", "coordinates": [ 88.3700048, 22.5812465 ] } },
{ "type": "Feature", "properties": { "@id": "node/1202167820", "@relations": null, "name": "Chandni Chowk East", "name:bn": "চাঁদনী চক পূর্ব", "name:en": "Chandni Chowk East", "place": "suburb", "wikidata": null, "wikipedia": null, "wikimedia_commons": null, "alt_name": null, "alt_name:bn": null, "alt_name:en": null, "place:bn": null, "name:hi": null }, "geometry": { "type": "Point", "coordinates": [ 88.3661712, 22.5649514 ] } },
{ "type": "Feature", "properties": { "@id": "node/1202168637", "@relations": null, "name": "Baitakkhana North", "name:bn": "বৈঠকখানা উত্তর", "name:en": "Baitakkhana North", "place": "suburb", "wikidata": null, "wikipedia": null, "wikimedia_commons": null, "alt_name": null, "alt_name:bn": null, "alt_name:en": null, "place:bn": null, "name:hi": null }, "geometry": { "type": "Point", "coordinates": [ 88.3697852, 22.574865 ] } },
{ "type": "Feature", "properties": { "@id": "node/1202168763", "@relations": null, "name": "Baithakkhana", "name:bn": "বৈঠকখানা", "name:en": "Baithakkhana", "place": "suburb", "wikidata": null, "wikipedia": null, "wikimedia_commons": null, "alt_name": null, "alt_name:bn": null, "alt_name:en": null, "place:bn": null, "name:hi": null }, "geometry": { "type": "Point", "coordinates": [ 88.3678127, 22.5698258 ] } },
{ "type": "Feature", "properties": { "@id": "node/1207704835", "@relations": null, "name": "Simla", "name:bn": "শিমলা", "name:en": "Simla", "place": "suburb", "wikidata": null, "wikipedia": null, "wikimedia_commons": null, "alt_name": null, "alt_name:bn": null, "alt_name:en": null, "place:bn": null, "name:hi": null }, "geometry": { "type": "Point", "coordinates": [ 88.3772276, 22.5883664 ] } },
{ "type": "Feature", "properties": { "@id": "node/1213003047", "@relations": null, "name": "Shyam Bazar", "name:bn": "শ্যামবাজার", "name:en": "Shyam Bazar", "place": "suburb", "wikidata": "Q7505977", "wikipedia": "en:Shyambazar", "wikimedia_commons": "Category:Shyambazar", "alt_name": null, "alt_name:bn": null, "alt_name:en": null, "place:bn": null, "name:hi": null }, "geometry": { "type": "Point", "coordinates": [ 88.3694857, 22.5979916 ] } },
{ "type": "Feature", "properties": { "@id": "node/1213498702", "@relations": null, "name": "Chitpur North", "name:bn": "চিৎপুর উত্তর", "name:en": "Chitpur North", "place": "suburb", "wikidata": null, "wikipedia": null, "wikimedia_commons": null, "alt_name": null, "alt_name:bn": null, "alt_name:en": null, "place:bn": null, "name:hi": null }, "geometry": { "type": "Point", "coordinates": [ 88.370973, 22.6047761 ] } },
{ "type": "Feature", "properties": { "@id": "node/1213498703", "@relations": null, "name": "Bag Bazar", "name:bn": "বাগবাজার", "name:en": "Bag Bazar", "place": "suburb", "wikidata": "Q3350694", "wikipedia": "en:Bagbazar", "wikimedia_commons": "Category:Bagbazar", "alt_name": null, "alt_name:bn": null, "alt_name:en": null, "place:bn": null, "name:hi": null }, "geometry": { "type": "Point", "coordinates": [ 88.3636559, 22.6015868 ] } },
{ "type": "Feature", "properties": { "@id": "node/1217644781", "@relations": null, "name": "Circular Canal", "name:bn": "সার্কুলার কানাল", "name:en": "Circular Canal", "place": "suburb", "wikidata": null, "wikipedia": null, "wikimedia_commons": null, "alt_name": null, "alt_name:bn": null, "alt_name:en": null, "place:bn": null, "name:hi": null }, "geometry": { "type": "Point", "coordinates": [ 88.3766409, 22.5808883 ] } },
{ "type": "Feature", "properties": { "@id": "node/1270249910", "@relations": null, "name": "Tal Tala", "name:bn": "তালতলা", "name:en": "Tal Tala", "place": "suburb", "wikidata": "Q7680332", "wikipedia": "en:Taltala", "wikimedia_commons": null, "alt_name": null, "alt_name:bn": null, "alt_name:en": null, "place:bn": null, "name:hi": null }, "geometry": { "type": "Point", "coordinates": [ 88.3627981, 22.5589558 ] } },
{ "type": "Feature", "properties": { "@id": "node/1275706810", "@relations": null, "name": "Ripon Street", "name:bn": "রিপন স্ট্রীট", "name:en": "Ripon Street", "place": "suburb", "wikidata": null, "wikipedia": null, "wikimedia_commons": null, "alt_name": null, "alt_name:bn": null, "alt_name:en": null, "place:bn": null, "name:hi": null }, "geometry": { "type": "Point", "coordinates": [ 88.3598938, 22.5503588 ] } },
{ "type": "Feature", "properties": { "@id": "node/1275706812", "@relations": null, "name": "Ho Chi Minh Sarani", "name:bn": "হো চি মিন সরণী", "name:en": "Ho Chi Minh Sarani", "place": "suburb", "wikidata": null, "wikipedia": null, "wikimedia_commons": null, "alt_name": null, "alt_name:bn": null, "alt_name:en": null, "place:bn": null, "name:hi": null }, "geometry": { "type": "Point", "coordinates": [ 88.3484987, 22.5438431 ] } },
{ "type": "Feature", "properties": { "@id": "node/1277509234", "@relations": null, "name": "Beniapukur", "name:bn": "বেনিয়াপুকুর", "name:en": "Beniapukur", "place": "suburb", "wikidata": "Q55605213", "wikipedia": "en:Beniapukur", "wikimedia_commons": null, "alt_name": null, "alt_name:bn": null, "alt_name:en": null, "place:bn": null, "name:hi": null }, "geometry": { "type": "Point", "coordinates": [ 88.3683399, 22.5490749 ] } },
{ "type": "Feature", "properties": { "@id": "node/1277509237", "@relations": null, "name": "Entali", "name:bn": "এন্টালি", "name:en": "Entali", "place": "suburb", "wikidata": "Q5380085", "wikipedia": "en:Entally", "wikimedia_commons": "Category:Entally", "alt_name": null, "alt_name:bn": null, "alt_name:en": null, "place:bn": null, "name:hi": null }, "geometry": { "type": "Point", "coordinates": [ 88.3679998, 22.5551428 ] } },
{ "type": "Feature", "properties": { "@id": "node/1283776497", "@relations": null, "name": "Tangra North", "name:bn": "ট্যাংরা উত্তর", "name:en": "Tangra North", "place": "suburb", "wikidata": null, "wikipedia": null, "wikimedia_commons": null, "alt_name": null, "alt_name:bn": null, "alt_name:en": null, "place:bn": null, "name:hi": null }, "geometry": { "type": "Point", "coordinates": [ 88.3795946, 22.5565107 ] } },
{ "type": "Feature", "properties": { "@id": "node/1289479473", "@relations": null, "name": "Narkeldanga", "name:bn": "নারিকেলডাঙ্গা", "name:en": "Narkeldanga", "place": "suburb", "wikidata": "Q55624664", "wikipedia": "en:Narkeldanga", "wikimedia_commons": null, "alt_name": null, "alt_name:bn": null, "alt_name:en": null, "place:bn": null, "name:hi": null }, "geometry": { "type": "Point", "coordinates": [ 88.3802213, 22.5763206 ] } },
{ "type": "Feature", "properties": { "@id": "node/1307115411", "@relations": null, "name": "Maniktala", "name:bn": "মানিকতলা", "name:en": "Maniktala", "place": "suburb", "wikidata": "Q6749638", "wikipedia": "en:Maniktala", "wikimedia_commons": "Category:Maniktala", "alt_name": null, "alt_name:bn": null, "alt_name:en": null, "place:bn": null, "name:hi": null }, "geometry": { "type": "Point", "coordinates": [ 88.3852834, 22.5880896 ] } },
{ "type": "Feature", "properties": { "@id": "node/1310971686", "@relations": null, "name": "Ultadanga", "name:bn": "উল্টাডাঙ্গা", "name:en": "Ultadanga", "place": "suburb", "wikidata": null, "wikipedia": null, "wikimedia_commons": null, "alt_name": null, "alt_name:bn": null, "alt_name:en": null, "place:bn": null, "name:hi": null }, "geometry": { "type": "Point", "coordinates": [ 88.3852833, 22.5961275 ] } },
{ "type": "Feature", "properties": { "@id": "node/1316632828", "@relations": null, "name": "Chitpur", "name:bn": "চিৎপুর", "name:en": "Chitpur", "place": "suburb", "wikidata": null, "wikipedia": null, "wikimedia_commons": null, "alt_name": null, "alt_name:bn": null, "alt_name:en": null, "place:bn": null, "name:hi": null }, "geometry": { "type": "Point", "coordinates": [ 88.3711362, 22.6161562 ] } },
{ "type": "Feature", "properties": { "@id": "node/1326048103", "@relations": null, "name": "Kushtia", "name:bn": "কুষ্টিয়া", "name:en": "Kushtia", "place": "suburb", "wikidata": null, "wikipedia": null, "wikimedia_commons": null, "alt_name": null, "alt_name:bn": null, "alt_name:en": null, "place:bn": null, "name:hi": null }, "geometry": { "type": "Point", "coordinates": [ 88.3796782, 22.5234105 ] } },
{ "type": "Feature", "properties": { "@id": "node/1341617476", "@relations": null, "name": "Kasba", "name:bn": "কসবা", "name:en": "Kasba", "place": "suburb", "wikidata": "Q6374063", "wikipedia": "en:Kasba, Kolkata", "wikimedia_commons": "Category:Kasba, Kolkata", "alt_name": null, "alt_name:bn": null, "alt_name:en": null, "place:bn": null, "name:hi": null }, "geometry": { "type": "Point", "coordinates": [ 88.3721663, 22.5044355 ] } },
{ "type": "Feature", "properties": { "@id": "node/1346732070", "@relations": null, "name": "Kasbah North", "name:bn": "কসবা উত্তর", "name:en": "Kasbah North", "place": "suburb", "wikidata": null, "wikipedia": null, "wikimedia_commons": null, "alt_name": null, "alt_name:bn": null, "alt_name:en": null, "place:bn": null, "name:hi": null }, "geometry": { "type": "Point", "coordinates": [ 88.3813327, 22.5138302 ] } },
{ "type": "Feature", "properties": { "@id": "node/1350661679", "@relations": null, "name": "Shantigarh", "name:bn": "শান্তিগড়", "name:en": "Shantigarh", "place": "suburb", "wikidata": null, "wikipedia": null, "wikimedia_commons": null, "alt_name": null, "alt_name:bn": null, "alt_name:en": null, "place:bn": null, "name:hi": null }, "geometry": { "type": "Point", "coordinates": [ 88.350176, 22.4902508 ] } },
{ "type": "Feature", "properties": { "@id": "node/1350661681", "@relations": null, "name": "Aswini Nagar", "name:bn": "অশ্বিনীনগর", "name:en": "Aswini Nagar", "place": "suburb", "wikidata": null, "wikipedia": null, "wikimedia_commons": null, "alt_name": null, "alt_name:bn": null, "alt_name:en": null, "place:bn": null, "name:hi": null }, "geometry": { "type": "Point", "coordinates": [ 88.3573536, 22.4858296 ] } },
{ "type": "Feature", "properties": { "@id": "node/1350661682", "@relations": null, "name": "Regent Colony", "name:bn": "রিজেন্ট কলোনি", "name:en": "Regent Colony", "place": "suburb", "wikidata": null, "wikipedia": null, "wikimedia_commons": null, "alt_name": null, "alt_name:bn": null, "alt_name:en": null, "place:bn": null, "name:hi": null }, "geometry": { "type": "Point", "coordinates": [ 88.3525792, 22.4865731 ] } },
{ "type": "Feature", "properties": { "@id": "node/1350661685", "@relations": null, "name": "Regent Park", "name:bn": "রিজেন্ট পার্ক", "name:en": "Regent Park", "place": "suburb", "wikidata": null, "wikipedia": null, "wikimedia_commons": null, "alt_name": null, "alt_name:bn": null, "alt_name:en": null, "place:bn": null, "name:hi": null }, "geometry": { "type": "Point", "coordinates": [ 88.3560125, 22.4884467 ] } },
{ "type": "Feature", "properties": { "@id": "node/1350661687", "@relations": null, "name": "Madar Tala Colony", "name:bn": "মাদারতলা কলোনি", "name:en": "Madar Tala Colony", "place": "suburb", "wikidata": null, "wikipedia": null, "wikimedia_commons": null, "alt_name": null, "alt_name:bn": null, "alt_name:en": null, "place:bn": null, "name:hi": null }, "geometry": { "type": "Point", "coordinates": [ 88.3524505, 22.4972293 ] } },
{ "type": "Feature", "properties": { "@id": "node/1350661688", "@relations": null, "name": "Jubilee Park", "name:bn": "জুবিলি পার্ক", "name:en": "Jubilee Park", "place": "suburb", "wikidata": null, "wikipedia": null, "wikimedia_commons": null, "alt_name": null, "alt_name:bn": null, "alt_name:en": null, "place:bn": null, "name:hi": null }, "geometry": { "type": "Point", "coordinates": [ 88.3484486, 22.4931156 ] } },
{ "type": "Feature", "properties": { "@id": "node/1350661689", "@relations": null, "name": "Tollygunge", "name:bn": "টালিগঞ্জ", "name:en": "Tollygunge", "place": "suburb", "wikidata": "Q3347281", "wikipedia": "en:Tollygunge", "wikimedia_commons": null, "alt_name": null, "alt_name:bn": null, "alt_name:en": null, "place:bn": null, "name:hi": null }, "geometry": { "type": "Point", "coordinates": [ 88.3453908, 22.498636 ] } },
{ "type": "Feature", "properties": { "@id": "node/1350661690", "@relations": null, "name": "Azadgarh", "name:bn": "আজাদগড়", "name:en": "Azadgarh", "place": "suburb", "wikidata": null, "wikipedia": null, "wikimedia_commons": null, "alt_name": null, "alt_name:bn": null, "alt_name:en": null, "place:bn": null, "name:hi": null }, "geometry": { "type": "Point", "coordinates": [ 88.3556155, 22.4866722 ] } },
{ "type": "Feature", "properties": { "@id": "node/1350672272", "@relations": null, "name": "Rajendra Prasad Colony", "name:bn": "রাজেন্দ্র প্রসাদ কলোনি", "name:en": "Rajendra Prasad Colony", "place": "suburb", "wikidata": null, "wikipedia": null, "wikimedia_commons": null, "alt_name": null, "alt_name:bn": null, "alt_name:en": null, "place:bn": null, "name:hi": null }, "geometry": { "type": "Point", "coordinates": [ 88.3541027, 22.5000344 ] } },
{ "type": "Feature", "properties": { "@id": "node/1350681829", "@relations": null, "name": "Arabinda Nagar", "name:bn": "অরবিন্দনগর", "name:en": "Arabinda Nagar", "place": "suburb", "wikidata": null, "wikipedia": null, "wikimedia_commons": null, "alt_name": null, "alt_name:bn": null, "alt_name:en": null, "place:bn": null, "name:hi": null }, "geometry": { "type": "Point", "coordinates": [ 88.3596603, 22.4882781 ] } },
{ "type": "Feature", "properties": { "@id": "node/1350681920", "@relations": null, "name": "Samajgarh", "name:bn": "সমাজগড়", "name:en": "Samajgarh", "place": "suburb", "wikidata": null, "wikipedia": null, "wikimedia_commons": null, "alt_name": null, "alt_name:bn": null, "alt_name:en": null, "place:bn": null, "name:hi": null }, "geometry": { "type": "Point", "coordinates": [ 88.3588663, 22.4865235 ] } },
{ "type": "Feature", "properties": { "@id": "node/1352769465", "@relations": null, "name": "Shaktigarh", "name:bn": "শক্তিগড়", "name:en": "Shaktigarh", "place": "suburb", "wikidata": null, "wikipedia": null, "wikimedia_commons": null, "alt_name": null, "alt_name:bn": null, "alt_name:en": null, "place:bn": null, "name:hi": null }, "geometry": { "type": "Point", "coordinates": [ 88.3678116, 22.4914569 ] } },
{ "type": "Feature", "properties": { "@id": "node/1352769534", "@relations": null, "name": "Bidhanpally", "name:bn": "বিধানপল্লী", "name:en": "Bidhanpally", "place": "suburb", "wikidata": null, "wikipedia": null, "wikimedia_commons": null, "alt_name": null, "alt_name:bn": null, "alt_name:en": null, "place:bn": null, "name:hi": null }, "geometry": { "type": "Point", "coordinates": [ 88.3665885, 22.4931985 ] } },
{ "type": "Feature", "properties": { "@id": "node/1352769545", "@relations": null, "name": "Poddar Nagar", "name:bn": "পোদ্দারনগর", "name:en": "Poddar Nagar", "place": "suburb", "wikidata": "Q85793755", "wikipedia": "en:Poddar Nagar", "wikimedia_commons": null, "alt_name": null, "alt_name:bn": null, "alt_name:en": null, "place:bn": null, "name:hi": null }, "geometry": { "type": "Point", "coordinates": [ 88.3662447, 22.4988417 ] } },
{ "type": "Feature", "properties": { "@id": "node/1352769550", "@relations": null, "name": "Katju Nagar", "name:bn": "কাটজু নগর", "name:en": "Katju Nagar", "place": "suburb", "wikidata": "Q85773769", "wikipedia": "en:Katju Nagar", "wikimedia_commons": null, "alt_name": null, "alt_name:bn": null, "alt_name:en": null, "place:bn": null, "name:hi": null }, "geometry": { "type": "Point", "coordinates": [ 88.3640131, 22.4990796 ] } },
{ "type": "Feature", "properties": { "@id": "node/1352769599", "@relations": null, "name": "Ananda Pally", "name:bn": "আনন্দপল্লী", "name:en": "Ananda Pally", "place": "suburb", "wikidata": null, "wikipedia": null, "wikimedia_commons": null, "alt_name": null, "alt_name:bn": null, "alt_name:en": null, "place:bn": null, "name:hi": null }, "geometry": { "type": "Point", "coordinates": [ 88.3706226, 22.4906039 ] } },
{ "type": "Feature", "properties": { "@id": "node/1352769629", "@relations": null, "name": "Bikramgarh", "name:bn": "বিক্রমগড়", "name:en": "Bikramgarh", "place": "suburb", "wikidata": "Q85747177", "wikipedia": "en:Bikramgarh", "wikimedia_commons": null, "alt_name": null, "alt_name:bn": null, "alt_name:en": null, "place:bn": null, "name:hi": null }, "geometry": { "type": "Point", "coordinates": [ 88.3616098, 22.4966412 ] } },
{ "type": "Feature", "properties": { "@id": "node/1352782200", "@relations": null, "name": "Bapuji Nagar", "name:bn": "বাপুজি নগর", "name:en": "Bapuji Nagar", "place": "suburb", "wikidata": null, "wikipedia": null, "wikimedia_commons": null, "alt_name": null, "alt_name:bn": null, "alt_name:en": null, "place:bn": null, "name:hi": null }, "geometry": { "type": "Point", "coordinates": [ 88.3717539, 22.4884855 ] } },
{ "type": "Feature", "properties": { "@id": "node/1355245031", "@relations": null, "name": "Bijoygarh", "name:bn": "বিজয়গড়", "name:en": "Bijoygarh", "place": "suburb", "wikidata": null, "wikipedia": null, "wikimedia_commons": null, "alt_name": null, "alt_name:bn": null, "alt_name:en": null, "place:bn": null, "name:hi": null }, "geometry": { "type": "Point", "coordinates": [ 88.3685589, 22.4872704 ] } },
{ "type": "Feature", "properties": { "@id": "node/1360099856", "@relations": null, "name": "Ashok Nagar", "name:bn": "অশোকনগর", "name:en": "Ashok Nagar", "place": "suburb", "wikidata": null, "wikipedia": null, "wikimedia_commons": null, "alt_name": null, "alt_name:bn": null, "alt_name:en": null, "place:bn": null, "name:hi": null }, "geometry": { "type": "Point", "coordinates": [ 88.3469837, 22.4845459 ] } },
{ "type": "Feature", "properties": { "@id": "node/1360099863", "@relations": null, "name": "Nehru Colony", "name:bn": "নেহেরু কলোনি", "name:en": "Nehru Colony", "place": "suburb", "wikidata": null, "wikipedia": null, "wikimedia_commons": null, "alt_name": null, "alt_name:bn": null, "alt_name:en": null, "place:bn": null, "name:hi": null }, "geometry": { "type": "Point", "coordinates": [ 88.3485823, 22.4876883 ] } },
{ "type": "Feature", "properties": { "@id": "node/1360099867", "@relations": null, "name": "Moore Avenue", "name:bn": "মুর অ্যাভিনিউ", "name:en": "Moore Avenue", "place": "suburb", "wikidata": null, "wikipedia": null, "wikimedia_commons": null, "alt_name": null, "alt_name:bn": null, "alt_name:en": null, "place:bn": null, "name:hi": null }, "geometry": { "type": "Point", "coordinates": [ 88.3510821, 22.4797676 ] } },
{ "type": "Feature", "properties": { "@id": "node/1360099873", "@relations": null, "name": "Vivekanada Nagar", "name:bn": "বিবেকানন্দ নগর", "name:en": "Vivekanada Nagar", "place": "suburb", "wikidata": null, "wikipedia": null, "wikimedia_commons": null, "alt_name": null, "alt_name:bn": null, "alt_name:en": null, "place:bn": null, "name:hi": null }, "geometry": { "type": "Point", "coordinates": [ 88.3496444, 22.4829597 ] } },
{ "type": "Feature", "properties": { "@id": "node/1360106123", "@relations": null, "name": "Shanti Nagar", "name:bn": "শান্তিনগর", "name:en": "Shanti Nagar", "place": "suburb", "wikidata": null, "wikipedia": null, "wikimedia_commons": null, "alt_name": null, "alt_name:bn": null, "alt_name:en": null, "place:bn": null, "name:hi": null }, "geometry": { "type": "Point", "coordinates": [ 88.3541291, 22.478459 ] } },
{ "type": "Feature", "properties": { "@id": "node/1362177417", "@relations": null, "name": "Charu Market Area", "name:bn": "চারু মার্কেট", "name:en": "Charu Market Area", "place": "suburb", "wikidata": null, "wikipedia": null, "wikimedia_commons": null, "alt_name": null, "alt_name:bn": null, "alt_name:en": null, "place:bn": null, "name:hi": null }, "geometry": { "type": "Point", "coordinates": [ 88.3487844, 22.5042819 ] } },
{ "type": "Feature", "properties": { "@id": "node/1559360457", "@relations": null, "name": "BNR South Colony", "name:bn": null, "name:en": "BNR South Colony", "place": "neighbourhood", "wikidata": null, "wikipedia": null, "wikimedia_commons": null, "alt_name": null, "alt_name:bn": null, "alt_name:en": null, "place:bn": null, "name:hi": null }, "geometry": { "type": "Point", "coordinates": [ 88.3113827, 22.5415492 ] } },
{ "type": "Feature", "properties": { "@id": "node/1559365154", "@relations": null, "name": "Watganj", "name:bn": "ওয়াটগঞ্জ", "name:en": "Watganj", "place": "suburb", "wikidata": null, "wikipedia": null, "wikimedia_commons": null, "alt_name": null, "alt_name:bn": null, "alt_name:en": null, "place:bn": null, "name:hi": null }, "geometry": { "type": "Point", "coordinates": [ 88.3218648, 22.5423271 ] } },
{ "type": "Feature", "properties": { "@id": "node/1562324608", "@relations": null, "name": "Mominpur", "name:bn": "মোমিনপুর", "name:en": "Mominpur", "place": "suburb", "wikidata": null, "wikipedia": null, "wikimedia_commons": null, "alt_name": null, "alt_name:bn": null, "alt_name:en": null, "place:bn": null, "name:hi": null }, "geometry": { "type": "Point", "coordinates": [ 88.3218754, 22.524588 ] } },
{ "type": "Feature", "properties": { "@id": "node/1562324630", "@relations": null, "name": "Kidderpore", "name:bn": "খিদিরপুর", "name:en": "Kidderpore", "place": "suburb", "wikidata": "Q6404679", "wikipedia": "en:Kidderpore", "wikimedia_commons": "Category:Kidderpore", "alt_name": null, "alt_name:bn": null, "alt_name:en": null, "place:bn": null, "name:hi": null }, "geometry": { "type": "Point", "coordinates": [ 88.3206094, 22.53538 ] } },
{ "type": "Feature", "properties": { "@id": "node/1577087782", "@relations": null, "name": "Hazra", "name:bn": "হাজরা", "name:en": "Hazra", "place": "suburb", "wikidata": null, "wikipedia": null, "wikimedia_commons": null, "alt_name": null, "alt_name:bn": null, "alt_name:en": null, "place:bn": null, "name:hi": null }, "geometry": { "type": "Point", "coordinates": [ 88.3499241, 22.5227232 ] } },
{ "type": "Feature", "properties": { "@id": "node/1589754222", "@relations": null, "name": "Manoharpukur", "name:bn": "মনোহরপুকুর", "name:en": "Manoharpukur", "place": "suburb", "wikidata": null, "wikipedia": null, "wikimedia_commons": null, "alt_name": null, "alt_name:bn": null, "alt_name:en": null, "place:bn": null, "name:hi": null }, "geometry": { "type": "Point", "coordinates": [ 88.3501016, 22.5198344 ] } },
{ "type": "Feature", "properties": { "@id": "node/2012850135", "@relations": null, "name": "Lake Town", "name:bn": "লেক টাউন", "name:en": "Lake Town", "place": "suburb", "wikidata": "Q6478070", "wikipedia": "en:Lake Town, Kolkata", "wikimedia_commons": "Category:Lake Town, Kolkata", "alt_name": null, "alt_name:bn": null, "alt_name:en": null, "place:bn": null, "name:hi": null }, "geometry": { "type": "Point", "coordinates": [ 88.4029611, 22.6057276 ] } },
{ "type": "Feature", "properties": { "@id": "node/2015874764", "@relations": null, "name": "Kala Bagan", "name:bn": "কলাবাগান", "name:en": "Kala Bagan", "place": "suburb", "wikidata": null, "wikipedia": null, "wikimedia_commons": null, "alt_name": null, "alt_name:bn": null, "alt_name:en": null, "place:bn": null, "name:hi": null }, "geometry": { "type": "Point", "coordinates": [ 88.3325809, 22.5175363 ] } },
{ "type": "Feature", "properties": { "@id": "node/2015875098", "@relations": null, "name": "Chetla", "name:bn": "চেতলা", "name:en": "Chetla", "place": "suburb", "wikidata": "Q55607239", "wikipedia": "en:Chetla", "wikimedia_commons": "Category:Chetla, Kolkata", "alt_name": null, "alt_name:bn": null, "alt_name:en": null, "place:bn": null, "name:hi": null }, "geometry": { "type": "Point", "coordinates": [ 88.3369583, 22.5143251 ] } },
{ "type": "Feature", "properties": { "@id": "node/2030008568", "@relations": null, "name": "DA Block", "name:bn": "ডিএ ব্লক", "name:en": "DA Block", "place": "neighbourhood", "wikidata": null, "wikipedia": null, "wikimedia_commons": null, "alt_name": null, "alt_name:bn": null, "alt_name:en": null, "place:bn": null, "name:hi": null }, "geometry": { "type": "Point", "coordinates": [ 88.4018706, 22.5849616 ] } },
{ "type": "Feature", "properties": { "@id": "node/2030008620", "@relations": null, "name": "CA Block", "name:bn": "সিএ ব্লক", "name:en": "CA Block", "place": "neighbourhood", "wikidata": null, "wikipedia": null, "wikimedia_commons": null, "alt_name": null, "alt_name:bn": null, "alt_name:en": null, "place:bn": null, "name:hi": null }, "geometry": { "type": "Point", "coordinates": [ 88.4010659, 22.5869725 ] } },
{ "type": "Feature", "properties": { "@id": "node/2030008680", "@relations": null, "name": "AA Block", "name:bn": "এএ ব্লক", "name:en": "AA Block", "place": "neighbourhood", "wikidata": null, "wikipedia": null, "wikimedia_commons": null, "alt_name": null, "alt_name:bn": null, "alt_name:en": null, "place:bn": null, "name:hi": null }, "geometry": { "type": "Point", "coordinates": [ 88.39774, 22.591856 ] } },
{ "type": "Feature", "properties": { "@id": "node/2030008692", "@relations": null, "name": "BA Block", "name:bn": "বিএ ব্লক", "name:en": "BA Block", "place": "neighbourhood", "wikidata": null, "wikipedia": null, "wikimedia_commons": null, "alt_name": null, "alt_name:bn": null, "alt_name:en": null, "place:bn": null, "name:hi": null }, "geometry": { "type": "Point", "coordinates": [ 88.3992742, 22.5894291 ] } },
{ "type": "Feature", "properties": { "@id": "node/2030008761", "@relations": null, "name": "EA Block", "name:bn": "ইএ ব্লক", "name:en": "EA Block", "place": "neighbourhood", "wikidata": null, "wikipedia": null, "wikimedia_commons": null, "alt_name": null, "alt_name:bn": null, "alt_name:en": null, "place:bn": null, "name:hi": null }, "geometry": { "type": "Point", "coordinates": [ 88.4035045, 22.5824122 ] } },
{ "type": "Feature", "properties": { "@id": "node/2030023034", "@relations": null, "name": "AB Block", "name:bn": "এবি ব্লক", "name:en": "AB Block", "place": "neighbourhood", "wikidata": null, "wikipedia": null, "wikimedia_commons": null, "alt_name": null, "alt_name:bn": null, "alt_name:en": null, "place:bn": null, "name:hi": null }, "geometry": { "type": "Point", "coordinates": [ 88.4005563, 22.5932279 ] } },
{ "type": "Feature", "properties": { "@id": "node/2030023036", "@relations": null, "name": "BC Block", "name:bn": "বিসি ব্লক", "name:en": "BC Block", "place": "neighbourhood", "wikidata": null, "wikipedia": null, "wikimedia_commons": null, "alt_name": null, "alt_name:bn": null, "alt_name:en": null, "place:bn": null, "name:hi": null }, "geometry": { "type": "Point", "coordinates": [ 88.4045903, 22.5928367 ] } },
{ "type": "Feature", "properties": { "@id": "node/2030023037", "@relations": null, "name": "AC Block", "name:bn": "এসি ব্লক", "name:en": "AC Block", "place": "neighbourhood", "wikidata": null, "wikipedia": null, "wikimedia_commons": null, "alt_name": null, "alt_name:bn": null, "alt_name:en": null, "place:bn": null, "name:hi": null }, "geometry": { "type": "Point", "coordinates": [ 88.4029703, 22.5948673 ] } },
{ "type": "Feature", "properties": { "@id": "node/2030023043", "@relations": null, "name": "BB Block", "name:bn": "বিবি ব্লক", "name:en": "BB Block", "place": "neighbourhood", "wikidata": null, "wikipedia": null, "wikimedia_commons": null, "alt_name": null, "alt_name:bn": null, "alt_name:en": null, "place:bn": null, "name:hi": null }, "geometry": { "type": "Point", "coordinates": [ 88.4016774, 22.5912072 ] } },
{ "type": "Feature", "properties": { "@id": "node/2030033788", "@relations": null, "name": "CC Block", "name:bn": "সিসি ব্লক", "name:en": "CC Block", "place": "neighbourhood", "wikidata": null, "wikipedia": null, "wikimedia_commons": null, "alt_name": null, "alt_name:bn": null, "alt_name:en": null, "place:bn": null, "name:hi": null }, "geometry": { "type": "Point", "coordinates": [ 88.4064571, 22.5903801 ] } },
{ "type": "Feature", "properties": { "@id": "node/2030033796", "@relations": null, "name": "CE Block", "name:bn": "সিই ব্লক", "name:en": "CE Block", "place": "neighbourhood", "wikidata": null, "wikipedia": null, "wikimedia_commons": null, "alt_name": null, "alt_name:bn": null, "alt_name:en": null, "place:bn": null, "name:hi": null }, "geometry": { "type": "Point", "coordinates": [ 88.4134432, 22.5944334 ] } },
{ "type": "Feature", "properties": { "@id": "node/2030033802", "@relations": null, "name": "CB Block", "name:bn": "সিবি ব্লক", "name:en": "CB Block", "place": "neighbourhood", "wikidata": null, "wikipedia": null, "wikimedia_commons": null, "alt_name": null, "alt_name:bn": null, "alt_name:en": null, "place:bn": null, "name:hi": null }, "geometry": { "type": "Point", "coordinates": [ 88.4037696, 22.5883791 ] } },
{ "type": "Feature", "properties": { "@id": "node/2030033803", "@relations": null, "name": "BE Block", "name:bn": "বিই ব্লক", "name:en": "BE Block", "place": "neighbourhood", "wikidata": null, "wikipedia": null, "wikimedia_commons": null, "alt_name": null, "alt_name:bn": null, "alt_name:en": null, "place:bn": null, "name:hi": null }, "geometry": { "type": "Point", "coordinates": [ 88.4126906, 22.5975417 ] } },
{ "type": "Feature", "properties": { "@id": "node/2030033810", "@relations": null, "name": "AE Block", "name:bn": "এই ব্লক", "name:en": "AE Block", "place": "neighbourhood", "wikidata": null, "wikipedia": null, "wikimedia_commons": null, "alt_name": null, "alt_name:bn": null, "alt_name:en": null, "place:bn": null, "name:hi": null }, "geometry": { "type": "Point", "coordinates": [ 88.4124116, 22.6004736 ] } },
{ "type": "Feature", "properties": { "@id": "node/2030033834", "@relations": null, "name": "AD Block", "name:bn": "এডি ব্লক", "name:en": "AD Block", "place": "neighbourhood", "wikidata": null, "wikipedia": null, "wikimedia_commons": null, "alt_name": null, "alt_name:bn": null, "alt_name:en": null, "place:bn": null, "name:hi": null }, "geometry": { "type": "Point", "coordinates": [ 88.4060441, 22.5966403 ] } },
{ "type": "Feature", "properties": { "@id": "node/2032000147", "@relations": null, "name": "CK Block", "name:bn": "সিকে ব্লক", "name:en": "CK Block", "place": "neighbourhood", "wikidata": null, "wikipedia": null, "wikimedia_commons": null, "alt_name": null, "alt_name:bn": null, "alt_name:en": null, "place:bn": null, "name:hi": null }, "geometry": { "type": "Point", "coordinates": [ 88.4267575, 22.5859248 ] } },
{ "type": "Feature", "properties": { "@id": "node/2032000170", "@relations": null, "name": "AF Block", "name:bn": "এএফ ব্লক", "name:en": "AF Block", "place": "neighbourhood", "wikidata": null, "wikipedia": null, "wikimedia_commons": null, "alt_name": null, "alt_name:bn": null, "alt_name:en": null, "place:bn": null, "name:hi": null }, "geometry": { "type": "Point", "coordinates": [ 88.4191186, 22.5998023 ] } },
{ "type": "Feature", "properties": { "@id": "node/2032000177", "@relations": null, "name": "DL Block", "name:bn": "ডিএল ব্লক", "name:en": "DL Block", "place": "neighbourhood", "wikidata": null, "wikipedia": null, "wikimedia_commons": null, "alt_name": null, "alt_name:bn": null, "alt_name:en": null, "place:bn": null, "name:hi": null }, "geometry": { "type": "Point", "coordinates": [ 88.4253735, 22.5825369 ] } },
{ "type": "Feature", "properties": { "@id": "node/2032000180", "@relations": null, "name": "BG Block", "name:bn": "বিজি ব্লক", "name:en": "BG Block", "place": "neighbourhood", "wikidata": null, "wikipedia": null, "wikimedia_commons": null, "alt_name": null, "alt_name:bn": null, "alt_name:en": null, "place:bn": null, "name:hi": null }, "geometry": { "type": "Point", "coordinates": [ 88.4222324, 22.5953692 ] } },
{ "type": "Feature", "properties": { "@id": "node/2032000184", "@relations": null, "name": "EC Block", "name:bn": "ইসি ব্লক", "name:en": "EC Block", "place": "neighbourhood", "wikidata": null, "wikipedia": null, "wikimedia_commons": null, "alt_name": null, "alt_name:bn": null, "alt_name:en": null, "place:bn": null, "name:hi": null }, "geometry": { "type": "Point", "coordinates": [ 88.4098381, 22.5855384 ] } },
{ "type": "Feature", "properties": { "@id": "node/2032000220", "@relations": null, "name": "FA Block", "name:bn": "এফএ ব্লক", "name:en": "FA Block", "place": "neighbourhood", "wikidata": null, "wikipedia": null, "wikimedia_commons": null, "alt_name": null, "alt_name:bn": null, "alt_name:en": null, "place:bn": null, "name:hi": null }, "geometry": { "type": "Point", "coordinates": [ 88.4027463, 22.57797 ] } },
{ "type": "Feature", "properties": { "@id": "node/2032000232", "@relations": null, "name": "CF Block", "name:bn": "সিএফ ব্লক", "name:en": "CF Block", "place": "neighbourhood", "wikidata": null, "wikipedia": null, "wikimedia_commons": null, "alt_name": null, "alt_name:bn": null, "alt_name:en": null, "place:bn": null, "name:hi": null }, "geometry": { "type": "Point", "coordinates": [ 88.4179169, 22.5938691 ] } },
{ "type": "Feature", "properties": { "@id": "node/2032000254", "@relations": null, "name": "BJ Block", "name:bn": "বিজে ব্লক", "name:en": "BJ Block", "place": "neighbourhood", "wikidata": null, "wikipedia": null, "wikimedia_commons": null, "alt_name": null, "alt_name:bn": null, "alt_name:en": null, "place:bn": null, "name:hi": null }, "geometry": { "type": "Point", "coordinates": [ 88.4267468, 22.5902239 ] } },
{ "type": "Feature", "properties": { "@id": "node/2032000275", "@relations": null, "name": "BH Block", "name:bn": "বিএইচ ব্লক", "name:en": "BH Block", "place": "neighbourhood", "wikidata": null, "wikipedia": null, "wikimedia_commons": null, "alt_name": null, "alt_name:bn": null, "alt_name:en": null, "place:bn": null, "name:hi": null }, "geometry": { "type": "Point", "coordinates": [ 88.4243977, 22.5937205 ] } },
{ "type": "Feature", "properties": { "@id": "node/2032000278", "@relations": null, "name": "DG Block", "name:bn": "ডিজি ব্লক", "name:en": "DG Block", "place": "neighbourhood", "wikidata": null, "wikipedia": null, "wikimedia_commons": null, "alt_name": null, "alt_name:bn": null, "alt_name:en": null, "place:bn": null, "name:hi": null }, "geometry": { "type": "Point", "coordinates": [ 88.42031, 22.5905404 ] } },
{ "type": "Feature", "properties": { "@id": "node/2032000293", "@relations": null, "name": "DF Block", "name:bn": "ডিএফ ব্লক", "name:en": "DF Block", "place": "neighbourhood", "wikidata": null, "wikipedia": null, "wikimedia_commons": null, "alt_name": null, "alt_name:bn": null, "alt_name:en": null, "place:bn": null, "name:hi": null }, "geometry": { "type": "Point", "coordinates": [ 88.4171557, 22.5911451 ] } },
{ "type": "Feature", "properties": { "@id": "node/2032000318", "@relations": null, "name": "AL Block", "name:bn": "এএল ব্লক", "name:en": "AL Block", "place": "neighbourhood", "wikidata": null, "wikipedia": null, "wikimedia_commons": null, "alt_name": null, "alt_name:bn": null, "alt_name:en": null, "place:bn": null, "name:hi": null }, "geometry": { "type": "Point", "coordinates": [ 88.433345, 22.5859644 ] } },
{ "type": "Feature", "properties": { "@id": "node/2032000322", "@relations": null, "name": "AJ Block", "name:bn": "এজে ব্লক", "name:en": "AJ Block", "place": "neighbourhood", "wikidata": null, "wikipedia": null, "wikimedia_commons": null, "alt_name": null, "alt_name:bn": null, "alt_name:en": null, "place:bn": null, "name:hi": null }, "geometry": { "type": "Point", "coordinates": [ 88.4293431, 22.5919871 ] } },
{ "type": "Feature", "properties": { "@id": "node/2032000330", "@relations": null, "name": "CJ Block", "name:bn": "সিজে ব্লক", "name:en": "CJ Block", "place": "neighbourhood", "wikidata": null, "wikipedia": null, "wikimedia_commons": null, "alt_name": null, "alt_name:bn": null, "alt_name:en": null, "place:bn": null, "name:hi": null }, "geometry": { "type": "Point", "coordinates": [ 88.4246868, 22.5893819 ] } },
{ "type": "Feature", "properties": { "@id": "node/2032000332", "@relations": null, "name": "EE Block", "name:bn": "ইই ব্লক", "name:en": "EE Block", "place": "neighbourhood", "wikidata": null, "wikipedia": null, "wikimedia_commons": null, "alt_name": null, "alt_name:bn": null, "alt_name:en": null, "place:bn": null, "name:hi": null }, "geometry": { "type": "Point", "coordinates": [ 88.4236604, 22.5801249 ] } },
{ "type": "Feature", "properties": { "@id": "node/2032000337", "@relations": null, "name": "ED Block", "name:bn": "ইডি ব্লক", "name:en": "ED Block", "place": "neighbourhood", "wikidata": null, "wikipedia": null, "wikimedia_commons": null, "alt_name": null, "alt_name:bn": null, "alt_name:en": null, "place:bn": null, "name:hi": null }, "geometry": { "type": "Point", "coordinates": [ 88.421157, 22.5832105 ] } },
{ "type": "Feature", "properties": { "@id": "node/2032000346", "@relations": null, "name": "BL Block", "name:bn": "বিএল ব্লক", "name:en": "BL Block", "place": "neighbourhood", "wikidata": null, "wikipedia": null, "wikimedia_commons": null, "alt_name": null, "alt_name:bn": null, "alt_name:en": null, "place:bn": null, "name:hi": null }, "geometry": { "type": "Point", "coordinates": [ 88.4305984, 22.5844983 ] } },
{ "type": "Feature", "properties": { "@id": "node/2032000349", "@relations": null, "name": "FB Block", "name:bn": "এফবি ব্লক", "name:en": "FB Block", "place": "neighbourhood", "wikidata": null, "wikipedia": null, "wikimedia_commons": null, "alt_name": null, "alt_name:bn": null, "alt_name:en": null, "place:bn": null, "name:hi": null }, "geometry": { "type": "Point", "coordinates": [ 88.4060937, 22.5796244 ] } },
{ "type": "Feature", "properties": { "@id": "node/2032000358", "@relations": null, "name": "BF Block", "name:bn": "বিএফ ব্লক", "name:en": "BF Block", "place": "neighbourhood", "wikidata": null, "wikipedia": null, "wikimedia_commons": null, "alt_name": null, "alt_name:bn": null, "alt_name:en": null, "place:bn": null, "name:hi": null }, "geometry": { "type": "Point", "coordinates": [ 88.4185177, 22.596286 ] } },
{ "type": "Feature", "properties": { "@id": "node/2032000360", "@relations": null, "name": "CL Block", "name:bn": "সিএল ব্লক", "name:en": "CL Block", "place": "neighbourhood", "wikidata": null, "wikipedia": null, "wikimedia_commons": null, "alt_name": null, "alt_name:bn": null, "alt_name:en": null, "place:bn": null, "name:hi": null }, "geometry": { "type": "Point", "coordinates": [ 88.4284214, 22.5833745 ] } },
{ "type": "Feature", "properties": { "@id": "node/2032000361", "@relations": null, "name": "AK Block", "name:bn": "একে ব্লক", "name:en": "AK Block", "place": "neighbourhood", "wikidata": null, "wikipedia": null, "wikimedia_commons": null, "alt_name": null, "alt_name:bn": null, "alt_name:en": null, "place:bn": null, "name:hi": null }, "geometry": { "type": "Point", "coordinates": [ 88.4313494, 22.5884012 ] } },
{ "type": "Feature", "properties": { "@id": "node/2032000376", "@relations": null, "name": "CG Block", "name:bn": "সিজি ব্লক", "name:en": "CG Block", "place": "neighbourhood", "wikidata": null, "wikipedia": null, "wikimedia_commons": null, "alt_name": null, "alt_name:bn": null, "alt_name:en": null, "place:bn": null, "name:hi": null }, "geometry": { "type": "Point", "coordinates": [ 88.4210726, 22.5931361 ] } },
{ "type": "Feature", "properties": { "@id": "node/2032000385", "@relations": null, "name": "DK Block", "name:bn": "ডিকে ব্লক", "name:en": "DK Block", "place": "neighbourhood", "wikidata": null, "wikipedia": null, "wikimedia_commons": null, "alt_name": null, "alt_name:bn": null, "alt_name:en": null, "place:bn": null, "name:hi": null }, "geometry": { "type": "Point", "coordinates": [ 88.4236568, 22.5850827 ] } },
{ "type": "Feature", "properties": { "@id": "node/2032000387", "@relations": null, "name": "AH Block", "name:bn": "এএইচ ব্লক", "name:en": "AH Block", "place": "neighbourhood", "wikidata": null, "wikipedia": null, "wikimedia_commons": null, "alt_name": null, "alt_name:bn": null, "alt_name:en": null, "place:bn": null, "name:hi": null }, "geometry": { "type": "Point", "coordinates": [ 88.4266073, 22.595662 ] } },
{ "type": "Feature", "properties": { "@id": "node/2032000404", "@relations": null, "name": "DJ Block", "name:bn": "ডিজে ব্লক", "name:en": "DJ Block", "place": "neighbourhood", "wikidata": null, "wikipedia": null, "wikimedia_commons": null, "alt_name": null, "alt_name:bn": null, "alt_name:en": null, "place:bn": null, "name:hi": null }, "geometry": { "type": "Point", "coordinates": [ 88.422187, 22.5880942 ] } },
{ "type": "Feature", "properties": { "@id": "node/2032000406", "@relations": null, "name": "CH Block", "name:bn": "সিএইচ ব্লক", "name:en": "CH Block", "place": "neighbourhood", "wikidata": null, "wikipedia": null, "wikimedia_commons": null, "alt_name": null, "alt_name:bn": null, "alt_name:en": null, "place:bn": null, "name:hi": null }, "geometry": { "type": "Point", "coordinates": [ 88.4229273, 22.5920861 ] } },
{ "type": "Feature", "properties": { "@id": "node/2032000432", "@relations": null, "name": "EB Block", "name:bn": "ইবি ব্লক", "name:en": "EB Block", "place": "neighbourhood", "wikidata": null, "wikipedia": null, "wikimedia_commons": null, "alt_name": null, "alt_name:bn": null, "alt_name:en": null, "place:bn": null, "name:hi": null }, "geometry": { "type": "Point", "coordinates": [ 88.4069735, 22.5839535 ] } },
{ "type": "Feature", "properties": { "@id": "node/2032000433", "@relations": null, "name": "BK Block", "name:bn": "বিকে ব্লক", "name:en": "BK Block", "place": "neighbourhood", "wikidata": null, "wikipedia": null, "wikimedia_commons": null, "alt_name": null, "alt_name:bn": null, "alt_name:en": null, "place:bn": null, "name:hi": null }, "geometry": { "type": "Point", "coordinates": [ 88.4291111, 22.5870119 ] } },
{ "type": "Feature", "properties": { "@id": "node/2032076803", "@relations": null, "name": "GE Block", "name:bn": "জিই ব্লক", "name:en": "GE Block", "place": "neighbourhood", "wikidata": null, "wikipedia": null, "wikimedia_commons": null, "alt_name": null, "alt_name:bn": null, "alt_name:en": null, "place:bn": null, "name:hi": null }, "geometry": { "type": "Point", "coordinates": [ 88.4206489, 22.5765874 ] } },
{ "type": "Feature", "properties": { "@id": "node/2032076804", "@relations": null, "name": "LA Block", "name:bn": "এলএ ব্লক", "name:en": "LA Block", "place": "neighbourhood", "wikidata": null, "wikipedia": null, "wikimedia_commons": null, "alt_name": null, "alt_name:bn": null, "alt_name:en": null, "place:bn": null, "name:hi": null }, "geometry": { "type": "Point", "coordinates": [ 88.4115616, 22.5625985 ] } },
{ "type": "Feature", "properties": { "@id": "node/2032076805", "@relations": null, "name": "FE Block", "name:bn": "এফই ব্লক", "name:en": "FE Block", "place": "neighbourhood", "wikidata": null, "wikipedia": null, "wikimedia_commons": null, "alt_name": null, "alt_name:bn": null, "alt_name:en": null, "place:bn": null, "name:hi": null }, "geometry": { "type": "Point", "coordinates": [ 88.4174088, 22.5812336 ] } },
{ "type": "Feature", "properties": { "@id": "node/2032076807", "@relations": null, "name": "JD Block", "name:bn": "জেডি ব্লক", "name:en": "JD Block", "place": "neighbourhood", "wikidata": null, "wikipedia": null, "wikimedia_commons": null, "alt_name": null, "alt_name:bn": null, "alt_name:en": null, "place:bn": null, "name:hi": null }, "geometry": { "type": "Point", "coordinates": [ 88.4162501, 22.5683052 ] } },
{ "type": "Feature", "properties": { "@id": "node/2032076808", "@relations": null, "name": "HM Block", "name:bn": "এইচএম ব্লক", "name:en": "HM Block", "place": "neighbourhood", "wikidata": null, "wikipedia": null, "wikimedia_commons": null, "alt_name": null, "alt_name:bn": null, "alt_name:en": null, "place:bn": null, "name:hi": null }, "geometry": { "type": "Point", "coordinates": [ 88.4229664, 22.5710693 ] } },
{ "type": "Feature", "properties": { "@id": "node/2032076811", "@relations": null, "name": "AQ Block", "name:bn": "একিউ ব্লক", "name:en": "AQ Block", "place": "neighbourhood", "wikidata": null, "wikipedia": null, "wikimedia_commons": null, "alt_name": null, "alt_name:bn": null, "alt_name:en": null, "place:bn": null, "name:hi": null }, "geometry": { "type": "Point", "coordinates": [ 88.4395424, 22.5787173 ] } },
{ "type": "Feature", "properties": { "@id": "node/2032076812", "@relations": null, "name": "IB Block", "name:bn": "আইবি ব্লক", "name:en": "IB Block", "place": "neighbourhood", "wikidata": null, "wikipedia": null, "wikimedia_commons": null, "alt_name": null, "alt_name:bn": null, "alt_name:en": null, "place:bn": null, "name:hi": null }, "geometry": { "type": "Point", "coordinates": [ 88.4143189, 22.5721294 ] } },
{ "type": "Feature", "properties": { "@id": "node/2032076814", "@relations": null, "name": "GD Block", "name:bn": "জিডি ব্লক", "name:en": "GD Block", "place": "neighbourhood", "wikidata": null, "wikipedia": null, "wikimedia_commons": null, "alt_name": null, "alt_name:bn": null, "alt_name:en": null, "place:bn": null, "name:hi": null }, "geometry": { "type": "Point", "coordinates": [ 88.4165613, 22.5778357 ] } },
{ "type": "Feature", "properties": { "@id": "node/2032076816", "@relations": null, "name": "KA Block", "name:bn": "কেএ ব্লক", "name:en": "KA Block", "place": "neighbourhood", "wikidata": null, "wikipedia": null, "wikimedia_commons": null, "alt_name": null, "alt_name:bn": null, "alt_name:en": null, "place:bn": null, "name:hi": null }, "geometry": { "type": "Point", "coordinates": [ 88.4082893, 22.5654816 ] } },
{ "type": "Feature", "properties": { "@id": "node/2032076817", "@relations": null, "name": "GN Block", "name:bn": "জিএন ব্লক", "name:en": "GN Block", "place": "neighbourhood", "wikidata": null, "wikipedia": null, "wikimedia_commons": null, "alt_name": null, "alt_name:bn": null, "alt_name:en": null, "place:bn": null, "name:hi": null }, "geometry": { "type": "Point", "coordinates": [ 88.4292111, 22.5715741 ] } },
{ "type": "Feature", "properties": { "@id": "node/2032076818", "@relations": null, "name": "DN Block", "name:bn": "ডিএন ব্লক", "name:en": "DN Block", "place": "neighbourhood", "wikidata": null, "wikipedia": null, "wikimedia_commons": null, "alt_name": null, "alt_name:bn": null, "alt_name:en": null, "place:bn": null, "name:hi": null }, "geometry": { "type": "Point", "coordinates": [ 88.4306504, 22.5774404 ] } },
{ "type": "Feature", "properties": { "@id": "node/2032076819", "@relations": null, "name": "CN Block", "name:bn": "সিএন ব্লক", "name:en": "CN Block", "place": "neighbourhood", "wikidata": null, "wikipedia": null, "wikimedia_commons": null, "alt_name": null, "alt_name:bn": null, "alt_name:en": null, "place:bn": null, "name:hi": null }, "geometry": { "type": "Point", "coordinates": [ 88.4324399, 22.5786975 ] } },
{ "type": "Feature", "properties": { "@id": "node/2032076820", "@relations": null, "name": "EM Block", "name:bn": "ইএম ব্লক", "name:en": "EM Block", "place": "neighbourhood", "wikidata": null, "wikipedia": null, "wikimedia_commons": null, "alt_name": null, "alt_name:bn": null, "alt_name:en": null, "place:bn": null, "name:hi": null }, "geometry": { "type": "Point", "coordinates": [ 88.4260777, 22.5761515 ] } },
{ "type": "Feature", "properties": { "@id": "node/2032076822", "@relations": null, "name": "FC Block", "name:bn": "এফসি ব্লক", "name:en": "FC Block", "place": "neighbourhood", "wikidata": null, "wikipedia": null, "wikimedia_commons": null, "alt_name": null, "alt_name:bn": null, "alt_name:en": null, "place:bn": null, "name:hi": null }, "geometry": { "type": "Point", "coordinates": [ 88.4092876, 22.5803717 ] } },
{ "type": "Feature", "properties": { "@id": "node/2032076824", "@relations": null, "name": "KC Block", "name:bn": "কেসি ব্লক", "name:en": "KC Block", "place": "neighbourhood", "wikidata": null, "wikipedia": null, "wikimedia_commons": null, "alt_name": null, "alt_name:bn": null, "alt_name:en": null, "place:bn": null, "name:hi": null }, "geometry": { "type": "Point", "coordinates": [ 88.4150485, 22.5653726 ] } },
{ "type": "Feature", "properties": { "@id": "node/2032076825", "@relations": null, "name": "KB Block", "name:bn": "কেবি ব্লক", "name:en": "KB Block", "place": "neighbourhood", "wikidata": null, "wikipedia": null, "wikimedia_commons": null, "alt_name": null, "alt_name:bn": null, "alt_name:en": null, "place:bn": null, "name:hi": null }, "geometry": { "type": "Point", "coordinates": [ 88.4122161, 22.5659869 ] } },
{ "type": "Feature", "properties": { "@id": "node/2032076826", "@relations": null, "name": "GB Block", "name:bn": "জিবি ব্লক", "name:en": "GB Block", "place": "neighbourhood", "wikidata": null, "wikipedia": null, "wikimedia_commons": null, "alt_name": null, "alt_name:bn": null, "alt_name:en": null, "place:bn": null, "name:hi": null }, "geometry": { "type": "Point", "coordinates": [ 88.4079889, 22.5766766 ] } },
{ "type": "Feature", "properties": { "@id": "node/2032076827", "@relations": null, "name": "CP Block", "name:bn": "সিপি ব্লক", "name:en": "CP Block", "place": "neighbourhood", "wikidata": null, "wikipedia": null, "wikimedia_commons": null, "alt_name": null, "alt_name:bn": null, "alt_name:en": null, "place:bn": null, "name:hi": null }, "geometry": { "type": "Point", "coordinates": [ 88.4373216, 22.5764289 ] } },
{ "type": "Feature", "properties": { "@id": "node/2032076828", "@relations": null, "name": "GC Block", "name:bn": "জিসি ব্লক", "name:en": "GC Block", "place": "neighbourhood", "wikidata": null, "wikipedia": null, "wikimedia_commons": null, "alt_name": null, "alt_name:bn": null, "alt_name:en": null, "place:bn": null, "name:hi": null }, "geometry": { "type": "Point", "coordinates": [ 88.412613, 22.5787 ] } },
{ "type": "Feature", "properties": { "@id": "node/2032076830", "@relations": null, "name": "EN Block", "name:bn": "ইএন ব্লক", "name:en": "EN Block", "place": "neighbourhood", "wikidata": null, "wikipedia": null, "wikimedia_commons": null, "alt_name": null, "alt_name:bn": null, "alt_name:en": null, "place:bn": null, "name:hi": null }, "geometry": { "type": "Point", "coordinates": [ 88.430777, 22.5743584 ] } },
{ "type": "Feature", "properties": { "@id": "node/2032076832", "@relations": null, "name": "IC Block", "name:bn": "আইসি ব্লক", "name:en": "IC Block", "place": "neighbourhood", "wikidata": null, "wikipedia": null, "wikimedia_commons": null, "alt_name": null, "alt_name:bn": null, "alt_name:en": null, "place:bn": null, "name:hi": null }, "geometry": { "type": "Point", "coordinates": [ 88.4174625, 22.5711981 ] } },
{ "type": "Feature", "properties": { "@id": "node/2032076833", "@relations": null, "name": "DP Block", "name:bn": "ডিপি ব্লক", "name:en": "DP Block", "place": "neighbourhood", "wikidata": null, "wikipedia": null, "wikimedia_commons": null, "alt_name": null, "alt_name:bn": null, "alt_name:en": null, "place:bn": null, "name:hi": null }, "geometry": { "type": "Point", "coordinates": [ 88.4359414, 22.5790304 ] } },
{ "type": "Feature", "properties": { "@id": "node/2032076834", "@relations": null, "name": "FF Block", "name:bn": "এফএফ ব্লক", "name:en": "FF Block", "place": "neighbourhood", "wikidata": null, "wikipedia": null, "wikimedia_commons": null, "alt_name": null, "alt_name:bn": null, "alt_name:en": null, "place:bn": null, "name:hi": null }, "geometry": { "type": "Point", "coordinates": [ 88.4210888, 22.5788956 ] } },
{ "type": "Feature", "properties": { "@id": "node/2032076835", "@relations": null, "name": "BN Block", "name:bn": "বিএন ব্লক", "name:en": "BN Block", "place": "neighbourhood", "wikidata": null, "wikipedia": null, "wikimedia_commons": null, "alt_name": null, "alt_name:bn": null, "alt_name:en": null, "place:bn": null, "name:hi": null }, "geometry": { "type": "Point", "coordinates": [ 88.4338776, 22.5805996 ] } },
{ "type": "Feature", "properties": { "@id": "node/2032076836", "@relations": null, "name": "AN Block", "name:bn": "এএন ব্লক", "name:en": "AN Block", "place": "neighbourhood", "wikidata": null, "wikipedia": null, "wikimedia_commons": null, "alt_name": null, "alt_name:bn": null, "alt_name:en": null, "place:bn": null, "name:hi": null }, "geometry": { "type": "Point", "coordinates": [ 88.4362487, 22.5830068 ] } },
{ "type": "Feature", "properties": { "@id": "node/2032076837", "@relations": null, "name": "IA Block", "name:bn": "আইএ ব্লক", "name:en": "IA Block", "place": "neighbourhood", "wikidata": null, "wikipedia": null, "wikimedia_commons": null, "alt_name": null, "alt_name:bn": null, "alt_name:en": null, "place:bn": null, "name:hi": null }, "geometry": { "type": "Point", "coordinates": [ 88.4107677, 22.5728823 ] } },
{ "type": "Feature", "properties": { "@id": "node/2032076839", "@relations": null, "name": "GP Block", "name:bn": "জিপি ব্লক", "name:en": "GP Block", "place": "neighbourhood", "wikidata": null, "wikipedia": null, "wikimedia_commons": null, "alt_name": null, "alt_name:bn": null, "alt_name:en": null, "place:bn": null, "name:hi": null }, "geometry": { "type": "Point", "coordinates": [ 88.4341136, 22.5699795 ] } },
{ "type": "Feature", "properties": { "@id": "node/2032076840", "@relations": null, "name": "AP Block", "name:bn": "এপি ব্লক", "name:en": "AP Block", "place": "neighbourhood", "wikidata": null, "wikipedia": null, "wikimedia_commons": null, "alt_name": null, "alt_name:bn": null, "alt_name:en": null, "place:bn": null, "name:hi": null }, "geometry": { "type": "Point", "coordinates": [ 88.4394351, 22.5817091 ] } },
{ "type": "Feature", "properties": { "@id": "node/2032076841", "@relations": null, "name": "JC Block", "name:bn": "জেসি ব্লক", "name:en": "JC Block", "place": "neighbourhood", "wikidata": null, "wikipedia": null, "wikimedia_commons": null, "alt_name": null, "alt_name:bn": null, "alt_name:en": null, "place:bn": null, "name:hi": null }, "geometry": { "type": "Point", "coordinates": [ 88.4126975, 22.5682126 ] } },
{ "type": "Feature", "properties": { "@id": "node/2032076842", "@relations": null, "name": "JB Block", "name:bn": "জেবি ব্লক", "name:en": "JB Block", "place": "neighbourhood", "wikidata": null, "wikipedia": null, "wikimedia_commons": null, "alt_name": null, "alt_name:bn": null, "alt_name:en": null, "place:bn": null, "name:hi": null }, "geometry": { "type": "Point", "coordinates": [ 88.4079787, 22.56779 ] } },
{ "type": "Feature", "properties": { "@id": "node/2034609807", "@relations": null, "name": "HB Block", "name:bn": "এইচবি ব্লক", "name:en": "HB Block", "place": "neighbourhood", "wikidata": null, "wikipedia": null, "wikimedia_commons": null, "alt_name": null, "alt_name:bn": null, "alt_name:en": null, "place:bn": null, "name:hi": null }, "geometry": { "type": "Point", "coordinates": [ 88.4153565, 22.5748824 ] } },
{ "type": "Feature", "properties": { "@id": "node/2034609822", "@relations": null, "name": "HA Block", "name:bn": "এইচএ ব্লক", "name:en": "HA Block", "place": "neighbourhood", "wikidata": null, "wikipedia": null, "wikimedia_commons": null, "alt_name": null, "alt_name:bn": null, "alt_name:en": null, "place:bn": null, "name:hi": null }, "geometry": { "type": "Point", "coordinates": [ 88.4112045, 22.5756353 ] } },
{ "type": "Feature", "properties": { "@id": "node/2301637813", "@relations": null, "name": "Paikpara", "name:bn": "পাইকপাড়া", "name:en": "Paikpara", "place": "suburb", "wikidata": null, "wikipedia": null, "wikimedia_commons": null, "alt_name": null, "alt_name:bn": null, "alt_name:en": null, "place:bn": null, "name:hi": null }, "geometry": { "type": "Point", "coordinates": [ 88.3855648, 22.6120515 ] } },
{ "type": "Feature", "properties": { "@id": "node/2469278856", "@relations": null, "name": "Sector IV", "name:bn": "সেক্টর ৪", "name:en": "Sector IV", "place": "suburb", "wikidata": "Q108659756", "wikipedia": null, "wikimedia_commons": "Category:Sector IV, Salt Lake", "alt_name": null, "alt_name:bn": null, "alt_name:en": null, "place:bn": null, "name:hi": null }, "geometry": { "type": "Point", "coordinates": [ 88.4165426, 22.5630193 ] } },
{ "type": "Feature", "properties": { "@id": "node/2469278861", "@relations": null, "name": "Sukant Nagar", "name:bn": "সুকান্ত নগর", "name:en": "Sukant Nagar", "place": "neighbourhood", "wikidata": null, "wikipedia": null, "wikimedia_commons": null, "alt_name": null, "alt_name:bn": null, "alt_name:en": null, "place:bn": null, "name:hi": null }, "geometry": { "type": "Point", "coordinates": [ 88.4150743, 22.5596292 ] } },
{ "type": "Feature", "properties": { "@id": "node/2469278864", "@relations": null, "name": "Milan Nagar", "name:bn": "মিলন নগর", "name:en": "Milan Nagar", "place": "suburb", "wikidata": null, "wikipedia": null, "wikimedia_commons": null, "alt_name": null, "alt_name:bn": null, "alt_name:en": null, "place:bn": null, "name:hi": null }, "geometry": { "type": "Point", "coordinates": [ 88.4133898, 22.557264 ] } },
{ "type": "Feature", "properties": { "@id": "node/2469278868", "@relations": null, "name": "Nawabhanga", "name:bn": "নাউভাঙ্গা", "name:en": "Nawabhanga", "place": "suburb", "wikidata": null, "wikipedia": null, "wikimedia_commons": null, "alt_name": null, "alt_name:bn": null, "alt_name:en": null, "place:bn": null, "name:hi": null }, "geometry": { "type": "Point", "coordinates": [ 88.4173089, 22.5554385 ] } },
{ "type": "Feature", "properties": { "@id": "node/2469278872", "@relations": null, "name": "Basani Devi Colony", "name:bn": "বসনী দেবী কলোনি", "name:en": "Basani Devi Colony", "place": "suburb", "wikidata": null, "wikipedia": null, "wikimedia_commons": null, "alt_name": null, "alt_name:bn": null, "alt_name:en": null, "place:bn": null, "name:hi": null }, "geometry": { "type": "Point", "coordinates": [ 88.4126273, 22.5559177 ] } },
{ "type": "Feature", "properties": { "@id": "node/2469278876", "@relations": null, "name": "Tapuriaghat", "name:bn": "তপুরিয়াঘাট", "name:en": "Tapuriaghat", "place": "suburb", "wikidata": null, "wikipedia": null, "wikimedia_commons": null, "alt_name": null, "alt_name:bn": null, "alt_name:en": null, "place:bn": null, "name:hi": null }, "geometry": { "type": "Point", "coordinates": [ 88.4144275, 22.553574 ] } },
{ "type": "Feature", "properties": { "@id": "node/2469278878", "@relations": null, "name": "Trinath Pally", "name:bn": "ত্রিনাথ পল্লী", "name:en": "Trinath Pally", "place": "suburb", "wikidata": null, "wikipedia": null, "wikimedia_commons": null, "alt_name": null, "alt_name:bn": null, "alt_name:en": null, "place:bn": null, "name:hi": null }, "geometry": { "type": "Point", "coordinates": [ 88.4163654, 22.5531732 ] } },
{ "type": "Feature", "properties": { "@id": "node/2469278879", "@relations": null, "name": "Makaltala", "name:bn": "মাকালতলা", "name:en": "Makaltala", "place": "suburb", "wikidata": null, "wikipedia": null, "wikimedia_commons": null, "alt_name": null, "alt_name:bn": null, "alt_name:en": null, "place:bn": null, "name:hi": null }, "geometry": { "type": "Point", "coordinates": [ 88.4214217, 22.5458151 ] } },
{ "type": "Feature", "properties": { "@id": "node/2790155767", "@relations": null, "name": "Phoolbagan", "name:bn": "ফুলবাগান", "name:en": null, "place": "neighbourhood", "wikidata": "Q55629897", "wikipedia": "en:Phoolbagan", "wikimedia_commons": "Category:Phoolbagan", "alt_name": null, "alt_name:bn": null, "alt_name:en": null, "place:bn": null, "name:hi": null }, "geometry": { "type": "Point", "coordinates": [ 88.3894213, 22.5721593 ] } },
{ "type": "Feature", "properties": { "@id": "node/3320334808", "@relations": null, "name": "Ruby Park East", "name:bn": null, "name:en": null, "place": "neighbourhood", "wikidata": null, "wikipedia": null, "wikimedia_commons": null, "alt_name": null, "alt_name:bn": null, "alt_name:en": null, "place:bn": null, "name:hi": null }, "geometry": { "type": "Point", "coordinates": [ 88.3857547, 22.512066 ] } },
{ "type": "Feature", "properties": { "@id": "node/3320334809", "@relations": null, "name": "Ruby Park", "name:bn": "রুবি পার্ক", "name:en": null, "place": "neighbourhood", "wikidata": null, "wikipedia": null, "wikimedia_commons": null, "alt_name": null, "alt_name:bn": null, "alt_name:en": null, "place:bn": null, "name:hi": null }, "geometry": { "type": "Point", "coordinates": [ 88.3819223, 22.5120965 ] } },
{ "type": "Feature", "properties": { "@id": "node/3321370206", "@relations": null, "name": "Lake Gardens", "name:bn": null, "name:en": null, "place": "neighbourhood", "wikidata": "Q85775632", "wikipedia": "en:Lake Gardens", "wikimedia_commons": null, "alt_name": null, "alt_name:bn": null, "alt_name:en": null, "place:bn": null, "name:hi": null }, "geometry": { "type": "Point", "coordinates": [ 88.3567177, 22.5057435 ] } },
{ "type": "Feature", "properties": { "@id": "node/3406900467", "@relations": null, "name": "Mallick Bazaar", "name:bn": "মল্লিক বাজার", "name:en": null, "place": "neighbourhood", "wikidata": null, "wikipedia": null, "wikimedia_commons": null, "alt_name": null, "alt_name:bn": null, "alt_name:en": null, "place:bn": null, "name:hi": null }, "geometry": { "type": "Point", "coordinates": [ 88.3613998, 22.5467962 ] } },
{ "type": "Feature", "properties": { "@id": "node/3636402008", "@relations": null, "name": "Santoshpur", "name:bn": "সন্তোষপুর", "name:en": null, "place": "neighbourhood", "wikidata": null, "wikipedia": null, "wikimedia_commons": null, "alt_name": null, "alt_name:bn": null, "alt_name:en": null, "place:bn": null, "name:hi": null }, "geometry": { "type": "Point", "coordinates": [ 88.3822296, 22.4960484 ] } },
{ "type": "Feature", "properties": { "@id": "node/4524946631", "@relations": null, "name": "Behala", "name:bn": "বেহালা", "name:en": "Behala", "place": "suburb", "wikidata": "Q4880659", "wikipedia": "en:Behala", "wikimedia_commons": "Category:Behala", "alt_name": null, "alt_name:bn": null, "alt_name:en": null, "place:bn": null, "name:hi": null }, "geometry": { "type": "Point", "coordinates": [ 88.3209435, 22.501572 ] } },
{ "type": "Feature", "properties": { "@id": "node/5210341588", "@relations": null, "name": "Ajoynagar", "name:bn": "অজয়নগর", "name:en": null, "place": "neighbourhood", "wikidata": "Q24951816", "wikipedia": "en:Ajoy Nagar", "wikimedia_commons": null, "alt_name": null, "alt_name:bn": null, "alt_name:en": null, "place:bn": null, "name:hi": null }, "geometry": { "type": "Point", "coordinates": [ 88.3950879, 22.4899171 ] } },
{ "type": "Feature", "properties": { "@id": "node/5576449493", "@relations": null, "name": "Duttabad", "name:bn": "দত্তবাদ", "name:en": null, "place": "neighbourhood", "wikidata": null, "wikipedia": null, "wikimedia_commons": null, "alt_name": null, "alt_name:bn": null, "alt_name:en": null, "place:bn": null, "name:hi": null }, "geometry": { "type": "Point", "coordinates": [ 88.4028628, 22.5801366 ] } },
{ "type": "Feature", "properties": { "@id": "node/6134509064", "@relations": null, "name": "Maidan", "name:bn": "ময়দান", "name:en": "Maidan", "place": "suburb", "wikidata": "Q987578", "wikipedia": "en:Maidan (Kolkata)", "wikimedia_commons": "Category:Maidan (Kolkata)", "alt_name": null, "alt_name:bn": null, "alt_name:en": null, "place:bn": null, "name:hi": null }, "geometry": { "type": "Point", "coordinates": [ 88.3414721, 22.5505515 ] } },
{ "type": "Feature", "properties": { "@id": "node/6196153193", "@relations": null, "name": "Cossipore", "name:bn": "কাশীপুর", "name:en": "Cossipore", "place": "suburb", "wikidata": "Q5174715", "wikipedia": "en:Cossipore", "wikimedia_commons": "Category:Cossipore", "alt_name": null, "alt_name:bn": null, "alt_name:en": null, "place:bn": null, "name:hi": null }, "geometry": { "type": "Point", "coordinates": [ 88.3737337, 22.6173485 ] } },
{ "type": "Feature", "properties": { "@id": "node/6415904682", "@relations": null, "name": "Santragachi", "name:bn": null, "name:en": null, "place": "neighbourhood", "wikidata": null, "wikipedia": null, "wikimedia_commons": null, "alt_name": null, "alt_name:bn": null, "alt_name:en": null, "place:bn": null, "name:hi": null }, "geometry": { "type": "Point", "coordinates": [ 88.2798107, 22.5822129 ] } },
{ "type": "Feature", "properties": { "@id": "node/7154718362", "@relations": null, "name": "Thakurpukur", "name:bn": null, "name:en": null, "place": "suburb", "wikidata": null, "wikipedia": null, "wikimedia_commons": null, "alt_name": null, "alt_name:bn": null, "alt_name:en": null, "place:bn": null, "name:hi": null }, "geometry": { "type": "Point", "coordinates": [ 88.3155256, 22.4625369 ] } },
{ "type": "Feature", "properties": { "@id": "node/7593363709", "@relations": null, "name": "PODRA", "name:bn": null, "name:en": null, "place": "neighbourhood", "wikidata": null, "wikipedia": null, "wikimedia_commons": null, "alt_name": null, "alt_name:bn": null, "alt_name:en": null, "place:bn": null, "name:hi": null }, "geometry": { "type": "Point", "coordinates": [ 88.2697036, 22.564417 ] } },
{ "type": "Feature", "properties": { "@id": "node/7692743532", "@relations": null, "name": "SHANTI NAGAR", "name:bn": null, "name:en": null, "place": "neighbourhood", "wikidata": null, "wikipedia": null, "wikimedia_commons": null, "alt_name": null, "alt_name:bn": null, "alt_name:en": null, "place:bn": null, "name:hi": null }, "geometry": { "type": "Point", "coordinates": [ 88.2782971, 22.5631143 ] } },
{ "type": "Feature", "properties": { "@id": "node/7692782149", "@relations": null, "name": "BAKULTALA", "name:bn": null, "name:en": null, "place": "neighbourhood", "wikidata": null, "wikipedia": null, "wikimedia_commons": null, "alt_name": null, "alt_name:bn": null, "alt_name:en": null, "place:bn": null, "name:hi": null }, "geometry": { "type": "Point", "coordinates": [ 88.284995, 22.5640258 ] } },
{ "type": "Feature", "properties": { "@id": "node/7695775966", "@relations": null, "name": "VIVEKANANDA NAGAR", "name:bn": null, "name:en": null, "place": "neighbourhood", "wikidata": null, "wikipedia": null, "wikimedia_commons": null, "alt_name": null, "alt_name:bn": null, "alt_name:en": null, "place:bn": null, "name:hi": null }, "geometry": { "type": "Point", "coordinates": [ 88.2704854, 22.5688797 ] } },
{ "type": "Feature", "properties": { "@id": "node/7704806667", "@relations": null, "name": "HAREKRISHNA NAGAR", "name:bn": null, "name:en": null, "place": "neighbourhood", "wikidata": null, "wikipedia": null, "wikimedia_commons": null, "alt_name": null, "alt_name:bn": null, "alt_name:en": null, "place:bn": null, "name:hi": null }, "geometry": { "type": "Point", "coordinates": [ 88.2790243, 22.5675976 ] } },
{ "type": "Feature", "properties": { "@id": "node/7704922651", "@relations": null, "name": "ADARSH NAGAR", "name:bn": null, "name:en": null, "place": "neighbourhood", "wikidata": null, "wikipedia": null, "wikimedia_commons": null, "alt_name": null, "alt_name:bn": null, "alt_name:en": null, "place:bn": null, "name:hi": null }, "geometry": { "type": "Point", "coordinates": [ 88.2744538, 22.5677561 ] } },
{ "type": "Feature", "properties": { "@id": "node/8989489802", "@relations": null, "name": "Kewrapukur", "name:bn": null, "name:en": null, "place": "neighbourhood", "wikidata": null, "wikipedia": null, "wikimedia_commons": null, "alt_name": null, "alt_name:bn": null, "alt_name:en": null, "place:bn": null, "name:hi": null }, "geometry": { "type": "Point", "coordinates": [ 88.335326, 22.4646609 ] } },
{ "type": "Feature", "properties": { "@id": "node/9042459622", "@relations": null, "name": "Paik Para", "name:bn": null, "name:en": null, "place": "neighbourhood", "wikidata": null, "wikipedia": null, "wikimedia_commons": null, "alt_name": null, "alt_name:bn": null, "alt_name:en": null, "place:bn": null, "name:hi": null }, "geometry": { "type": "Point", "coordinates": [ 88.3906558, 22.6143402 ] } },
{ "type": "Feature", "properties": { "@id": "node/9191667611", "@relations": null, "name": "Tiretta Bazaar", "name:bn": null, "name:en": null, "place": "neighbourhood", "wikidata": null, "wikipedia": null, "wikimedia_commons": null, "alt_name": "Old China Market", "alt_name:bn": null, "alt_name:en": null, "place:bn": null, "name:hi": null }, "geometry": { "type": "Point", "coordinates": [ 88.356306, 22.574821 ] } },
{ "type": "Feature", "properties": { "@id": "node/9815240058", "@relations": null, "name": "DB Block", "name:bn": null, "name:en": "DB Block", "place": "neighbourhood", "wikidata": null, "wikipedia": null, "wikimedia_commons": null, "alt_name": null, "alt_name:bn": null, "alt_name:en": null, "place:bn": null, "name:hi": null }, "geometry": { "type": "Point", "coordinates": [ 88.4049761, 22.5866633 ] } },
{ "type": "Feature", "properties": { "@id": "node/9815261110", "@relations": null, "name": "DD Block", "name:bn": null, "name:en": "DD Block", "place": "neighbourhood", "wikidata": null, "wikipedia": null, "wikimedia_commons": null, "alt_name": null, "alt_name:bn": null, "alt_name:en": null, "place:bn": null, "name:hi": null }, "geometry": { "type": "Point", "coordinates": [ 88.4111452, 22.5902492 ] } },
{ "type": "Feature", "properties": { "@id": "node/9815261111", "@relations": null, "name": "DC Block", "name:bn": null, "name:en": "DC Block", "place": "neighbourhood", "wikidata": null, "wikipedia": null, "wikimedia_commons": null, "alt_name": null, "alt_name:bn": null, "alt_name:en": null, "place:bn": null, "name:hi": null }, "geometry": { "type": "Point", "coordinates": [ 88.4084254, 22.5885553 ] } },
{ "type": "Feature", "properties": { "@id": "node/9815261112", "@relations": null, "name": "AG Block", "name:bn": null, "name:en": "AG Block", "place": "neighbourhood", "wikidata": null, "wikipedia": null, "wikimedia_commons": null, "alt_name": null, "alt_name:bn": null, "alt_name:en": null, "place:bn": null, "name:hi": null }, "geometry": { "type": "Point", "coordinates": [ 88.4240225, 22.5984311 ] } },
{ "type": "Feature", "properties": { "@id": "node/9815261113", "@relations": null, "name": "CD Block", "name:bn": null, "name:en": "CD Block", "place": "neighbourhood", "wikidata": null, "wikipedia": null, "wikimedia_commons": null, "alt_name": null, "alt_name:bn": null, "alt_name:en": null, "place:bn": null, "name:hi": null }, "geometry": { "type": "Point", "coordinates": [ 88.4099543, 22.5924705 ] } },
{ "type": "Feature", "properties": { "@id": "node/9815261114", "@relations": null, "name": "BD Block", "name:bn": null, "name:en": "BD Block", "place": "neighbourhood", "wikidata": null, "wikipedia": null, "wikimedia_commons": null, "alt_name": null, "alt_name:bn": null, "alt_name:en": null, "place:bn": null, "name:hi": null }, "geometry": { "type": "Point", "coordinates": [ 88.4080379, 22.5947921 ] } },
{ "type": "Feature", "properties": { "@id": "node/9914301355", "@relations": null, "name": "Joka", "name:bn": null, "name:en": null, "place": "suburb", "wikidata": "Q3183085", "wikipedia": "en:Joka, Kolkata", "wikimedia_commons": "Category:Joka, Kolkata", "alt_name": null, "alt_name:bn": null, "alt_name:en": null, "place:bn": null, "name:hi": null }, "geometry": { "type": "Point", "coordinates": [ 88.3025205, 22.4533503 ] } },
{ "type": "Feature", "properties": { "@id": "node/9976532679", "@relations": null, "name": "Shibpur", "name:bn": null, "name:en": null, "place": "suburb", "wikidata": "Q7496073", "wikipedia": "en:Shibpur", "wikimedia_commons": "Category:Shibpur", "alt_name": null, "alt_name:bn": null, "alt_name:en": null, "place:bn": null, "name:hi": null }, "geometry": { "type": "Point", "coordinates": [ 88.2942109, 22.5685792 ] } },
{ "type": "Feature", "properties": { "@id": "node/10010962802", "@relations": null, "name": "Baguiati", "name:bn": null, "name:en": null, "place": "suburb", "wikidata": "Q4842151", "wikipedia": "en:Baguiati", "wikimedia_commons": "Category:Baguiati", "alt_name": null, "alt_name:bn": null, "alt_name:en": null, "place:bn": "বাগুইআটি", "name:hi": null }, "geometry": { "type": "Point", "coordinates": [ 88.4276832, 22.609668 ] } },
{ "type": "Feature", "properties": { "@id": "node/10011361412", "@relations": null, "name": "Sealdah", "name:bn": "শিয়ালদা", "name:en": null, "place": "suburb", "wikidata": "Q52162031", "wikipedia": "en:Sealdah", "wikimedia_commons": "Category:Sealdah", "alt_name": null, "alt_name:bn": null, "alt_name:en": null, "place:bn": null, "name:hi": null }, "geometry": { "type": "Point", "coordinates": [ 88.3712798, 22.5654723 ] } },
{ "type": "Feature", "properties": { "@id": "node/10172802436", "@relations": null, "name": "Dharmatala", "name:bn": "ধর্মতলা", "name:en": null, "place": "suburb", "wikidata": "Q5269337", "wikipedia": "en:Dharmatala", "wikimedia_commons": "Category:Dharmatala", "alt_name": null, "alt_name:bn": null, "alt_name:en": null, "place:bn": null, "name:hi": null }, "geometry": { "type": "Point", "coordinates": [ 88.3531662, 22.5606093 ] } },
{ "type": "Feature", "properties": { "@id": "node/10594563328", "@relations": null, "name": "Bansdroni", "name:bn": null, "name:en": null, "place": "neighbourhood", "wikidata": null, "wikipedia": null, "wikimedia_commons": null, "alt_name": null, "alt_name:bn": null, "alt_name:en": null, "place:bn": null, "name:hi": null }, "geometry": { "type": "Point", "coordinates": [ 88.3618078, 22.4707691 ] } },
{ "type": "Feature", "properties": { "@id": "node/10594566481", "@relations": null, "name": "Panchasayar", "name:bn": "পঞ্চসায়র", "name:en": null, "place": "neighbourhood", "wikidata": null, "wikipedia": null, "wikimedia_commons": null, "alt_name": null, "alt_name:bn": null, "alt_name:en": null, "place:bn": null, "name:hi": null }, "geometry": { "type": "Point", "coordinates": [ 88.4005261, 22.4743672 ] } },
{ "type": "Feature", "properties": { "@id": "node/10594566755", "@relations": null, "name": "Garia", "name:bn": null, "name:en": null, "place": "suburb", "wikidata": null, "wikipedia": null, "wikimedia_commons": null, "alt_name": null, "alt_name:bn": null, "alt_name:en": null, "place:bn": null, "name:hi": null }, "geometry": { "type": "Point", "coordinates": [ 88.3928483, 22.466016 ] } },
{ "type": "Feature", "properties": { "@id": "node/10594603205", "@relations": null, "name": "Brahmapur", "name:bn": null, "name:en": null, "place": "neighbourhood", "wikidata": null, "wikipedia": null, "wikimedia_commons": null, "alt_name": null, "alt_name:bn": null, "alt_name:en": null, "place:bn": null, "name:hi": null }, "geometry": { "type": "Point", "coordinates": [ 88.3644484, 22.4602389 ] } },
{ "type": "Feature", "properties": { "@id": "node/10594644911", "@relations": null, "name": "Panchpota", "name:bn": null, "name:en": null, "place": "suburb", "wikidata": null, "wikipedia": null, "wikimedia_commons": null, "alt_name": null, "alt_name:bn": null, "alt_name:en": null, "place:bn": null, "name:hi": null }, "geometry": { "type": "Point", "coordinates": [ 88.4196482, 22.4681162 ] } },
{ "type": "Feature", "properties": { "@id": "node/10594658823", "@relations": null, "name": "Laskarpur", "name:bn": null, "name:en": null, "place": "suburb", "wikidata": null, "wikipedia": null, "wikimedia_commons": null, "alt_name": null, "alt_name:bn": null, "alt_name:en": null, "place:bn": null, "name:hi": null }, "geometry": { "type": "Point", "coordinates": [ 88.3845924, 22.4530678 ] } },
{ "type": "Feature", "properties": { "@id": "node/10595625751", "@relations": null, "name": "Ranabhutia", "name:bn": null, "name:en": null, "place": "suburb", "wikidata": null, "wikipedia": null, "wikimedia_commons": null, "alt_name": null, "alt_name:bn": null, "alt_name:en": null, "place:bn": null, "name:hi": null }, "geometry": { "type": "Point", "coordinates": [ 88.422225, 22.4798931 ] } },
{ "type": "Feature", "properties": { "@id": "node/10595638427", "@relations": null, "name": "Khurigochhi", "name:bn": null, "name:en": null, "place": "suburb", "wikidata": null, "wikipedia": null, "wikimedia_commons": null, "alt_name": null, "alt_name:bn": null, "alt_name:en": null, "place:bn": null, "name:hi": null }, "geometry": { "type": "Point", "coordinates": [ 88.440627, 22.4562867 ] } },
{ "type": "Feature", "properties": { "@id": "node/10595651880", "@relations": null, "name": "Jagatipata", "name:bn": null, "name:en": null, "place": "suburb", "wikidata": null, "wikipedia": null, "wikimedia_commons": null, "alt_name": null, "alt_name:bn": null, "alt_name:en": null, "place:bn": null, "name:hi": null }, "geometry": { "type": "Point", "coordinates": [ 88.4137465, 22.4971132 ] } },
{ "type": "Feature", "properties": { "@id": "node/10595654993", "@relations": null, "name": "Gangajora", "name:bn": null, "name:en": null, "place": "suburb", "wikidata": null, "wikipedia": null, "wikimedia_commons": null, "alt_name": null, "alt_name:bn": null, "alt_name:en": null, "place:bn": null, "name:hi": null }, "geometry": { "type": "Point", "coordinates": [ 88.4412517, 22.464525 ] } },
{ "type": "Feature", "properties": { "@id": "node/10595657003", "@relations": null, "name": "Atghara", "name:bn": null, "name:en": null, "place": "suburb", "wikidata": null, "wikipedia": null, "wikimedia_commons": null, "alt_name": null, "alt_name:bn": null, "alt_name:en": null, "place:bn": null, "name:hi": null }, "geometry": { "type": "Point", "coordinates": [ 88.418032, 22.4848488 ] } },
{ "type": "Feature", "properties": { "@id": "node/10595657292", "@relations": null, "name": "Kantipota", "name:bn": null, "name:en": null, "place": "suburb", "wikidata": null, "wikipedia": null, "wikimedia_commons": null, "alt_name": null, "alt_name:bn": null, "alt_name:en": null, "place:bn": null, "name:hi": null }, "geometry": { "type": "Point", "coordinates": [ 88.4356787, 22.4783254 ] } },
{ "type": "Feature", "properties": { "@id": "node/10595659556", "@relations": null, "name": "Bhagabanpur", "name:bn": null, "name:en": null, "place": "suburb", "wikidata": null, "wikipedia": null, "wikimedia_commons": null, "alt_name": null, "alt_name:bn": null, "alt_name:en": null, "place:bn": null, "name:hi": null }, "geometry": { "type": "Point", "coordinates": [ 88.4276296, 22.4985141 ] } },
{ "type": "Feature", "properties": { "@id": "node/10595671930", "@relations": null, "name": "Chak Kolarkhal", "name:bn": null, "name:en": null, "place": "suburb", "wikidata": null, "wikipedia": null, "wikimedia_commons": null, "alt_name": null, "alt_name:bn": null, "alt_name:en": null, "place:bn": null, "name:hi": null }, "geometry": { "type": "Point", "coordinates": [ 88.4203156, 22.5169712 ] } },
{ "type": "Feature", "properties": { "@id": "node/10595676755", "@relations": null, "name": "Kharki", "name:bn": null, "name:en": null, "place": "suburb", "wikidata": null, "wikipedia": null, "wikimedia_commons": null, "alt_name": null, "alt_name:bn": null, "alt_name:en": null, "place:bn": null, "name:hi": null }, "geometry": { "type": "Point", "coordinates": [ 88.4367132, 22.5079512 ] } },
{ "type": "Feature", "properties": { "@id": "node/10595677223", "@relations": null, "name": "Nayabad", "name:bn": null, "name:en": null, "place": "suburb", "wikidata": null, "wikipedia": null, "wikimedia_commons": null, "alt_name": null, "alt_name:bn": null, "alt_name:en": null, "place:bn": null, "name:hi": null }, "geometry": { "type": "Point", "coordinates": [ 88.4399813, 22.477646 ] } },
{ "type": "Feature", "properties": { "@id": "node/10595697438", "@relations": null, "name": "Deara", "name:bn": null, "name:en": null, "place": "suburb", "wikidata": null, "wikipedia": null, "wikimedia_commons": null, "alt_name": null, "alt_name:bn": null, "alt_name:en": null, "place:bn": null, "name:hi": null }, "geometry": { "type": "Point", "coordinates": [ 88.445715, 22.4970663 ] } },
{ "type": "Feature", "properties": { "@id": "node/10595699425", "@relations": null, "name": "Mukundapur", "name:bn": "মুকুন্দপুর", "name:en": null, "place": "suburb", "wikidata": null, "wikipedia": null, "wikimedia_commons": null, "alt_name": null, "alt_name:bn": null, "alt_name:en": null, "place:bn": null, "name:hi": null }, "geometry": { "type": "Point", "coordinates": [ 88.4112825, 22.4920659 ] } },
{ "type": "Feature", "properties": { "@id": "node/10595704706", "@relations": null, "name": "Karimpur", "name:bn": null, "name:en": null, "place": "suburb", "wikidata": null, "wikipedia": null, "wikimedia_commons": null, "alt_name": null, "alt_name:bn": null, "alt_name:en": null, "place:bn": null, "name:hi": null }, "geometry": { "type": "Point", "coordinates": [ 88.4166693, 22.509607 ] } },
{ "type": "Feature", "properties": { "@id": "node/10657586688", "@relations": null, "name": "Rameswarpur", "name:bn": null, "name:en": null, "place": "suburb", "wikidata": null, "wikipedia": null, "wikimedia_commons": null, "alt_name": null, "alt_name:bn": null, "alt_name:en": null, "place:bn": null, "name:hi": null }, "geometry": { "type": "Point", "coordinates": [ 88.2242101, 22.4581719 ] } },
{ "type": "Feature", "properties": { "@id": "node/10657590410", "@relations": null, "name": "Chata Kalikapur", "name:bn": null, "name:en": null, "place": "suburb", "wikidata": null, "wikipedia": null, "wikimedia_commons": null, "alt_name": null, "alt_name:bn": null, "alt_name:en": null, "place:bn": null, "name:hi": null }, "geometry": { "type": "Point", "coordinates": [ 88.2626904, 22.4774753 ] } },
{ "type": "Feature", "properties": { "@id": "node/10657608233", "@relations": null, "name": "Ganye Gangadharpur", "name:bn": null, "name:en": null, "place": "suburb", "wikidata": null, "wikipedia": null, "wikimedia_commons": null, "alt_name": null, "alt_name:bn": null, "alt_name:en": null, "place:bn": null, "name:hi": null }, "geometry": { "type": "Point", "coordinates": [ 88.2668106, 22.4720274 ] } },
{ "type": "Feature", "properties": { "@id": "node/10657625731", "@relations": null, "name": "Asuti", "name:bn": null, "name:en": null, "place": "suburb", "wikidata": null, "wikipedia": null, "wikimedia_commons": null, "alt_name": null, "alt_name:bn": null, "alt_name:en": null, "place:bn": null, "name:hi": null }, "geometry": { "type": "Point", "coordinates": [ 88.2473355, 22.4569287 ] } },
{ "type": "Feature", "properties": { "@id": "node/10657633726", "@relations": null, "name": "Ramchandrapur", "name:bn": null, "name:en": null, "place": "suburb", "wikidata": null, "wikipedia": null, "wikimedia_commons": null, "alt_name": null, "alt_name:bn": null, "alt_name:en": null, "place:bn": null, "name:hi": null }, "geometry": { "type": "Point", "coordinates": [ 88.3300029, 22.4607788 ] } },
{ "type": "Feature", "properties": { "@id": "node/10657635703", "@relations": null, "name": "Kalua", "name:bn": null, "name:en": null, "place": "suburb", "wikidata": null, "wikipedia": null, "wikimedia_commons": null, "alt_name": null, "alt_name:bn": null, "alt_name:en": null, "place:bn": null, "name:hi": null }, "geometry": { "type": "Point", "coordinates": [ 88.3124001, 22.453898 ] } },
{ "type": "Feature", "properties": { "@id": "node/10657681982", "@relations": null, "name": "Balarampur", "name:bn": null, "name:en": null, "place": "suburb", "wikidata": null, "wikipedia": null, "wikimedia_commons": null, "alt_name": null, "alt_name:bn": null, "alt_name:en": null, "place:bn": null, "name:hi": null }, "geometry": { "type": "Point", "coordinates": [ 88.2141664, 22.4769442 ] } },
{ "type": "Feature", "properties": { "@id": "node/10674082882", "@relations": null, "name": "Khanberia", "name:bn": null, "name:en": null, "place": "suburb", "wikidata": null, "wikipedia": null, "wikimedia_commons": null, "alt_name": null, "alt_name:bn": null, "alt_name:en": null, "place:bn": null, "name:hi": null }, "geometry": { "type": "Point", "coordinates": [ 88.2685777, 22.4784656 ] } },
{ "type": "Feature", "properties": { "@id": "node/10674090777", "@relations": null, "name": "Chak Chhata", "name:bn": null, "name:en": null, "place": "suburb", "wikidata": null, "wikipedia": null, "wikimedia_commons": null, "alt_name": null, "alt_name:bn": null, "alt_name:en": null, "place:bn": null, "name:hi": null }, "geometry": { "type": "Point", "coordinates": [ 88.2565137, 22.4851174 ] } },
{ "type": "Feature", "properties": { "@id": "node/10674098929", "@relations": null, "name": "Krishnarampur", "name:bn": null, "name:en": null, "place": "suburb", "wikidata": null, "wikipedia": null, "wikimedia_commons": null, "alt_name": null, "alt_name:bn": null, "alt_name:en": null, "place:bn": null, "name:hi": null }, "geometry": { "type": "Point", "coordinates": [ 88.2654729, 22.4675147 ] } },
{ "type": "Feature", "properties": { "@id": "node/10674103274", "@relations": null, "name": "Bagpota", "name:bn": null, "name:en": null, "place": "suburb", "wikidata": null, "wikipedia": null, "wikimedia_commons": null, "alt_name": null, "alt_name:bn": null, "alt_name:en": null, "place:bn": null, "name:hi": null }, "geometry": { "type": "Point", "coordinates": [ 88.2794703, 22.4610478 ] } },
{ "type": "Feature", "properties": { "@id": "node/10674105200", "@relations": null, "name": "Dari Bagpota", "name:bn": null, "name:en": null, "place": "suburb", "wikidata": null, "wikipedia": null, "wikimedia_commons": null, "alt_name": null, "alt_name:bn": null, "alt_name:en": null, "place:bn": null, "name:hi": null }, "geometry": { "type": "Point", "coordinates": [ 88.2737003, 22.4597808 ] } },
{ "type": "Feature", "properties": { "@id": "node/10674109572", "@relations": null, "name": "Sonamukhi Krishnanagar", "name:bn": null, "name:en": null, "place": "suburb", "wikidata": null, "wikipedia": null, "wikimedia_commons": null, "alt_name": null, "alt_name:bn": null, "alt_name:en": null, "place:bn": null, "name:hi": null }, "geometry": { "type": "Point", "coordinates": [ 88.276357, 22.4675775 ] } },
{ "type": "Feature", "properties": { "@id": "node/10674113851", "@relations": null, "name": "Jagannathpur", "name:bn": null, "name:en": null, "place": "suburb", "wikidata": null, "wikipedia": null, "wikimedia_commons": null, "alt_name": null, "alt_name:bn": null, "alt_name:en": null, "place:bn": null, "name:hi": null }, "geometry": { "type": "Point", "coordinates": [ 88.2621246, 22.477106 ] } },
{ "type": "Feature", "properties": { "@id": "node/10674115241", "@relations": null, "name": "Sarsuna", "name:bn": null, "name:en": null, "place": "suburb", "wikidata": null, "wikipedia": null, "wikimedia_commons": null, "alt_name": null, "alt_name:bn": null, "alt_name:en": null, "place:bn": null, "name:hi": null }, "geometry": { "type": "Point", "coordinates": [ 88.2811023, 22.4703197 ] } },
{ "type": "Feature", "properties": { "@id": "node/10674117926", "@relations": null, "name": "Kalagachhia", "name:bn": null, "name:en": null, "place": "suburb", "wikidata": null, "wikipedia": null, "wikimedia_commons": null, "alt_name": null, "alt_name:bn": null, "alt_name:en": null, "place:bn": null, "name:hi": null }, "geometry": { "type": "Point", "coordinates": [ 88.282212, 22.455525 ] } },
{ "type": "Feature", "properties": { "@id": "node/10674125437", "@relations": null, "name": "Paschim Barisha", "name:bn": null, "name:en": null, "place": "neighbourhood", "wikidata": null, "wikipedia": null, "wikimedia_commons": null, "alt_name": null, "alt_name:bn": null, "alt_name:en": null, "place:bn": null, "name:hi": null }, "geometry": { "type": "Point", "coordinates": [ 88.2856024, 22.4621691 ] } },
{ "type": "Feature", "properties": { "@id": "node/10674126099", "@relations": null, "name": "Paschim Putiary", "name:bn": null, "name:en": null, "place": "neighbourhood", "wikidata": null, "wikipedia": null, "wikimedia_commons": null, "alt_name": null, "alt_name:bn": null, "alt_name:en": null, "place:bn": null, "name:hi": null }, "geometry": { "type": "Point", "coordinates": [ 88.3377899, 22.4803617 ] } },
{ "type": "Feature", "properties": { "@id": "node/10674141400", "@relations": null, "name": "Sankharipota", "name:bn": null, "name:en": null, "place": "suburb", "wikidata": null, "wikipedia": null, "wikimedia_commons": null, "alt_name": null, "alt_name:bn": null, "alt_name:en": null, "place:bn": null, "name:hi": null }, "geometry": { "type": "Point", "coordinates": [ 88.2717877, 22.4546059 ] } },
{ "type": "Feature", "properties": { "@id": "node/10674141401", "@relations": null, "name": "Shibrampur", "name:bn": null, "name:en": null, "place": "suburb", "wikidata": null, "wikipedia": null, "wikimedia_commons": null, "alt_name": null, "alt_name:bn": null, "alt_name:en": null, "place:bn": null, "name:hi": null }, "geometry": { "type": "Point", "coordinates": [ 88.27196, 22.482881 ] } },
{ "type": "Feature", "properties": { "@id": "node/10674143920", "@relations": null, "name": "Sibhugli", "name:bn": null, "name:en": null, "place": "suburb", "wikidata": null, "wikipedia": null, "wikimedia_commons": null, "alt_name": null, "alt_name:bn": null, "alt_name:en": null, "place:bn": null, "name:hi": null }, "geometry": { "type": "Point", "coordinates": [ 88.2323203, 22.4588685 ] } },
{ "type": "Feature", "properties": { "@id": "node/10674151811", "@relations": null, "name": "Sonamukhi", "name:bn": null, "name:en": null, "place": "suburb", "wikidata": null, "wikipedia": null, "wikimedia_commons": null, "alt_name": null, "alt_name:bn": null, "alt_name:en": null, "place:bn": null, "name:hi": null }, "geometry": { "type": "Point", "coordinates": [ 88.2700247, 22.4683572 ] } },
{ "type": "Feature", "properties": { "@id": "node/10674166971", "@relations": null, "name": "Krishnanagar", "name:bn": null, "name:en": null, "place": "suburb", "wikidata": null, "wikipedia": null, "wikimedia_commons": null, "alt_name": null, "alt_name:bn": null, "alt_name:en": null, "place:bn": null, "name:hi": null }, "geometry": { "type": "Point", "coordinates": [ 88.3362173, 22.4574569 ] } },
{ "type": "Feature", "properties": { "@id": "node/10674185890", "@relations": null, "name": "Chandigarh", "name:bn": null, "name:en": null, "place": "suburb", "wikidata": null, "wikipedia": null, "wikimedia_commons": null, "alt_name": null, "alt_name:bn": null, "alt_name:en": null, "place:bn": null, "name:hi": null }, "geometry": { "type": "Point", "coordinates": [ 88.257743, 22.455355 ] } },
{ "type": "Feature", "properties": { "@id": "node/10674274949", "@relations": null, "name": "Haridevpur", "name:bn": null, "name:en": null, "place": "suburb", "wikidata": null, "wikipedia": null, "wikimedia_commons": null, "alt_name": null, "alt_name:bn": null, "alt_name:en": null, "place:bn": null, "name:hi": null }, "geometry": { "type": "Point", "coordinates": [ 88.3311283, 22.4652952 ] } },
{ "type": "Feature", "properties": { "@id": "node/10674275777", "@relations": null, "name": "Chak Thakurani", "name:bn": null, "name:en": null, "place": "suburb", "wikidata": null, "wikipedia": null, "wikimedia_commons": null, "alt_name": null, "alt_name:bn": null, "alt_name:en": null, "place:bn": null, "name:hi": null }, "geometry": { "type": "Point", "coordinates": [ 88.3202849, 22.4576877 ] } },
{ "type": "Feature", "properties": { "@id": "node/10674291915", "@relations": null, "name": "Naoabad", "name:bn": null, "name:en": null, "place": "suburb", "wikidata": null, "wikipedia": null, "wikimedia_commons": null, "alt_name": null, "alt_name:bn": null, "alt_name:en": null, "place:bn": null, "name:hi": null }, "geometry": { "type": "Point", "coordinates": [ 88.2654363, 22.4565859 ] } },
{ "type": "Feature", "properties": { "@id": "node/10676363796", "@relations": null, "name": "Ramkantapur", "name:bn": null, "name:en": null, "place": "suburb", "wikidata": null, "wikipedia": null, "wikimedia_commons": null, "alt_name": null, "alt_name:bn": null, "alt_name:en": null, "place:bn": null, "name:hi": null }, "geometry": { "type": "Point", "coordinates": [ 88.3403223, 22.4541784 ] } },
{ "type": "Feature", "properties": { "@id": "node/10676388720", "@relations": null, "name": "Chak Ramnagar", "name:bn": null, "name:en": null, "place": "suburb", "wikidata": null, "wikipedia": null, "wikimedia_commons": null, "alt_name": null, "alt_name:bn": null, "alt_name:en": null, "place:bn": null, "name:hi": null }, "geometry": { "type": "Point", "coordinates": [ 88.3299362, 22.4502506 ] } },
{ "type": "Feature", "properties": { "@id": "node/10676391537", "@relations": null, "name": "Purba Barisha", "name:bn": null, "name:en": null, "place": "suburb", "wikidata": null, "wikipedia": null, "wikimedia_commons": null, "alt_name": null, "alt_name:bn": null, "alt_name:en": null, "place:bn": null, "name:hi": null }, "geometry": { "type": "Point", "coordinates": [ 88.3071623, 22.4562288 ] } },
{ "type": "Feature", "properties": { "@id": "node/10676482802", "@relations": null, "name": "Purba Putiary", "name:bn": null, "name:en": null, "place": "neighbourhood", "wikidata": null, "wikipedia": null, "wikimedia_commons": null, "alt_name": null, "alt_name:bn": null, "alt_name:en": null, "place:bn": null, "name:hi": null }, "geometry": { "type": "Point", "coordinates": [ 88.3485022, 22.4768118 ] } },
{ "type": "Feature", "properties": { "@id": "node/10676698126", "@relations": null, "name": "Park Circus", "name:bn": "পার্ক সার্কাস", "name:en": null, "place": "suburb", "wikidata": null, "wikipedia": null, "wikimedia_commons": null, "alt_name": null, "alt_name:bn": null, "alt_name:en": null, "place:bn": null, "name:hi": null }, "geometry": { "type": "Point", "coordinates": [ 88.368246, 22.5378855 ] } },
{ "type": "Feature", "properties": { "@id": "node/10676698127", "@relations": null, "name": "Ballygunge", "name:bn": "বালিগঞ্জ", "name:en": null, "place": "suburb", "wikidata": null, "wikipedia": null, "wikimedia_commons": null, "alt_name": null, "alt_name:bn": null, "alt_name:en": null, "place:bn": null, "name:hi": null }, "geometry": { "type": "Point", "coordinates": [ 88.3659084, 22.5280337 ] } },
{ "type": "Feature", "properties": { "@id": "node/10676754548", "@relations": null, "name": "Baghajatin", "name:bn": "বাঘাযতীন", "name:en": null, "place": "suburb", "wikidata": null, "wikipedia": null, "wikimedia_commons": null, "alt_name": null, "alt_name:bn": null, "alt_name:en": null, "place:bn": null, "name:hi": null }, "geometry": { "type": "Point", "coordinates": [ 88.3754447, 22.4838805 ] } },
{ "type": "Feature", "properties": { "@id": "node/10685005971", "@relations": null, "name": "Chingripota", "name:bn": null, "name:en": null, "place": "suburb", "wikidata": null, "wikipedia": null, "wikimedia_commons": null, "alt_name": null, "alt_name:bn": null, "alt_name:en": null, "place:bn": null, "name:hi": null }, "geometry": { "type": "Point", "coordinates": [ 88.2231763, 22.4784661 ] } },
{ "type": "Feature", "properties": { "@id": "node/10685020092", "@relations": null, "name": "Betuabati Rajarampur", "name:bn": null, "name:en": null, "place": "suburb", "wikidata": null, "wikipedia": null, "wikimedia_commons": null, "alt_name": null, "alt_name:bn": null, "alt_name:en": null, "place:bn": null, "name:hi": null }, "geometry": { "type": "Point", "coordinates": [ 88.217648, 22.4597903 ] } },
{ "type": "Feature", "properties": { "@id": "node/10685022509", "@relations": null, "name": "Atmarampur", "name:bn": null, "name:en": null, "place": "suburb", "wikidata": null, "wikipedia": null, "wikimedia_commons": null, "alt_name": null, "alt_name:bn": null, "alt_name:en": null, "place:bn": null, "name:hi": null }, "geometry": { "type": "Point", "coordinates": [ 88.2237153, 22.4739426 ] } },
{ "type": "Feature", "properties": { "@id": "node/10685023615", "@relations": null, "name": "Kisorpur", "name:bn": null, "name:en": null, "place": "suburb", "wikidata": null, "wikipedia": null, "wikimedia_commons": null, "alt_name": null, "alt_name:bn": null, "alt_name:en": null, "place:bn": null, "name:hi": null }, "geometry": { "type": "Point", "coordinates": [ 88.21346, 22.4501894 ] } },
{ "type": "Feature", "properties": { "@id": "node/10685023920", "@relations": null, "name": "Nandarampur", "name:bn": null, "name:en": null, "place": "suburb", "wikidata": null, "wikipedia": null, "wikimedia_commons": null, "alt_name": null, "alt_name:bn": null, "alt_name:en": null, "place:bn": null, "name:hi": null }, "geometry": { "type": "Point", "coordinates": [ 88.2167636, 22.4850466 ] } },
{ "type": "Feature", "properties": { "@id": "node/10685024259", "@relations": null, "name": "Betuabati", "name:bn": null, "name:en": null, "place": "suburb", "wikidata": null, "wikipedia": null, "wikimedia_commons": null, "alt_name": null, "alt_name:bn": null, "alt_name:en": null, "place:bn": null, "name:hi": null }, "geometry": { "type": "Point", "coordinates": [ 88.2087673, 22.452933 ] } },
{ "type": "Feature", "properties": { "@id": "node/10685028011", "@relations": null, "name": "Santoshpur", "name:bn": null, "name:en": null, "place": "suburb", "wikidata": null, "wikipedia": null, "wikimedia_commons": null, "alt_name": null, "alt_name:bn": null, "alt_name:en": null, "place:bn": null, "name:hi": null }, "geometry": { "type": "Point", "coordinates": [ 88.219215, 22.466999 ] } },
{ "type": "Feature", "properties": { "@id": "node/10685043694", "@relations": null, "name": "Chak Nabasan", "name:bn": null, "name:en": null, "place": "suburb", "wikidata": null, "wikipedia": null, "wikimedia_commons": null, "alt_name": null, "alt_name:bn": null, "alt_name:en": null, "place:bn": null, "name:hi": null }, "geometry": { "type": "Point", "coordinates": [ 88.2100356, 22.4864057 ] } },
{ "type": "Feature", "properties": { "@id": "node/10692939313", "@relations": null, "name": "Santoshpur", "name:bn": null, "name:en": null, "place": "suburb", "wikidata": null, "wikipedia": null, "wikimedia_commons": null, "alt_name": null, "alt_name:bn": null, "alt_name:en": null, "place:bn": null, "name:hi": null }, "geometry": { "type": "Point", "coordinates": [ 88.2551534, 22.5269342 ] } },
{ "type": "Feature", "properties": { "@id": "node/10692939766", "@relations": null, "name": "Batanagar", "name:bn": null, "name:en": null, "place": "suburb", "wikidata": "Q810716", "wikipedia": "en:Batanagar", "wikimedia_commons": "Category:Batanagar", "alt_name": null, "alt_name:bn": null, "alt_name:en": null, "place:bn": null, "name:hi": null }, "geometry": { "type": "Point", "coordinates": [ 88.2229919, 22.5132661 ] } },
{ "type": "Feature", "properties": { "@id": "node/10692982851", "@relations": null, "name": "Metiabruz", "name:bn": null, "name:en": null, "place": "suburb", "wikidata": null, "wikipedia": null, "wikimedia_commons": null, "alt_name": null, "alt_name:bn": null, "alt_name:en": null, "place:bn": null, "name:hi": null }, "geometry": { "type": "Point", "coordinates": [ 88.2679343, 22.54357 ] } },
{ "type": "Feature", "properties": { "@id": "node/10694618096", "@relations": null, "name": "Barhans Fartabad", "name:bn": null, "name:en": null, "place": "suburb", "wikidata": null, "wikipedia": null, "wikimedia_commons": null, "alt_name": null, "alt_name:bn": null, "alt_name:en": null, "place:bn": null, "name:hi": null }, "geometry": { "type": "Point", "coordinates": [ 88.3837159, 22.4639291 ] } },
{ "type": "Feature", "properties": { "@id": "node/10694694187", "@relations": null, "name": "Garagacha", "name:bn": null, "name:en": null, "place": "suburb", "wikidata": null, "wikipedia": null, "wikimedia_commons": null, "alt_name": null, "alt_name:bn": null, "alt_name:en": null, "place:bn": null, "name:hi": null }, "geometry": { "type": "Point", "coordinates": [ 88.396599, 22.4690184 ] } },
{ "type": "Feature", "properties": { "@id": "node/10694706693", "@relations": null, "name": "Kumrokhali", "name:bn": null, "name:en": null, "place": "suburb", "wikidata": null, "wikipedia": null, "wikimedia_commons": null, "alt_name": null, "alt_name:bn": null, "alt_name:en": null, "place:bn": null, "name:hi": null }, "geometry": { "type": "Point", "coordinates": [ 88.4060222, 22.4530589 ] } },
{ "type": "Feature", "properties": { "@id": "node/10694799970", "@relations": null, "name": "Kandarpapur Boalia", "name:bn": null, "name:en": null, "place": "suburb", "wikidata": null, "wikipedia": null, "wikimedia_commons": null, "alt_name": null, "alt_name:bn": null, "alt_name:en": null, "place:bn": null, "name:hi": null }, "geometry": { "type": "Point", "coordinates": [ 88.4022259, 22.4562973 ] } },
{ "type": "Feature", "properties": { "@id": "node/10694809973", "@relations": null, "name": "Dhelua", "name:bn": null, "name:en": null, "place": "suburb", "wikidata": null, "wikipedia": null, "wikimedia_commons": null, "alt_name": null, "alt_name:bn": null, "alt_name:en": null, "place:bn": null, "name:hi": null }, "geometry": { "type": "Point", "coordinates": [ 88.4101865, 22.469909 ] } },
{ "type": "Feature", "properties": { "@id": "node/10694840501", "@relations": null, "name": "Tentulberia", "name:bn": null, "name:en": null, "place": "suburb", "wikidata": null, "wikipedia": null, "wikimedia_commons": null, "alt_name": null, "alt_name:bn": null, "alt_name:en": null, "place:bn": null, "name:hi": null }, "geometry": { "type": "Point", "coordinates": [ 88.4022091, 22.4652372 ] } },
{ "type": "Feature", "properties": { "@id": "node/10694851505", "@relations": null, "name": "Balia", "name:bn": null, "name:en": null, "place": "suburb", "wikidata": null, "wikipedia": null, "wikimedia_commons": null, "alt_name": null, "alt_name:bn": null, "alt_name:en": null, "place:bn": null, "name:hi": null }, "geometry": { "type": "Point", "coordinates": [ 88.3913039, 22.4591657 ] } },
{ "type": "Feature", "properties": { "@id": "node/10792425145", "@relations": null, "name": "Sector V", "name:bn": null, "name:en": null, "place": "suburb", "wikidata": "Q108672136", "wikipedia": "bn:সেক্টর ৫, বিধাননগর", "wikimedia_commons": "Category:Sector V, Salt Lake", "alt_name": null, "alt_name:bn": null, "alt_name:en": null, "place:bn": null, "name:hi": null }, "geometry": { "type": "Point", "coordinates": [ 88.4322569, 22.5754543 ] } },
{ "type": "Feature", "properties": { "@id": "node/10792425146", "@relations": null, "name": "Sector III", "name:bn": null, "name:en": null, "place": "suburb", "wikidata": "Q108659741", "wikipedia": null, "wikimedia_commons": "Category:Sector III, Salt Lake", "alt_name": null, "alt_name:bn": null, "alt_name:en": null, "place:bn": null, "name:hi": null }, "geometry": { "type": "Point", "coordinates": [ 88.4136879, 22.5770567 ] } },
{ "type": "Feature", "properties": { "@id": "node/10792425147", "@relations": null, "name": "Sector II", "name:bn": null, "name:en": null, "place": "suburb", "wikidata": "Q108659713", "wikipedia": null, "wikimedia_commons": "Category:Sector II, Salt Lake", "alt_name": null, "alt_name:bn": null, "alt_name:en": null, "place:bn": null, "name:hi": null }, "geometry": { "type": "Point", "coordinates": [ 88.4246179, 22.5922799 ] } },
{ "type": "Feature", "properties": { "@id": "node/10792425148", "@relations": null, "name": "Sector I", "name:bn": null, "name:en": null, "place": "suburb", "wikidata": "Q108659618", "wikipedia": null, "wikimedia_commons": "Category:Sector I, Salt Lake", "alt_name": null, "alt_name:bn": null, "alt_name:en": null, "place:bn": null, "name:hi": null }, "geometry": { "type": "Point", "coordinates": [ 88.4130952, 22.5949519 ] } },
{ "type": "Feature", "properties": { "@id": "node/10856334277", "@relations": null, "name": "Rajarhat Gopalpur", "name:bn": null, "name:en": null, "place": "suburb", "wikidata": "Q247261", "wikipedia": "en:Rajarhat", "wikimedia_commons": "Category:Rajarhat Gopalpur", "alt_name": null, "alt_name:bn": null, "alt_name:en": null, "place:bn": null, "name:hi": null }, "geometry": { "type": "Point", "coordinates": [ 88.44061, 22.6286173 ] } },
{ "type": "Feature", "properties": { "@id": "node/10917936011", "@relations": null, "name": "Alipore", "name:bn": "আলিপুর", "name:en": null, "place": "suburb", "wikidata": "Q2341786", "wikipedia": "en:Alipore", "wikimedia_commons": null, "alt_name": null, "alt_name:bn": null, "alt_name:en": null, "place:bn": null, "name:hi": null }, "geometry": { "type": "Point", "coordinates": [ 88.3323692, 22.5264928 ] } },
{ "type": "Feature", "properties": { "@id": "node/11118401342", "@relations": null, "name": "Chhatakal", "name:bn": "ছাতাকল", "name:en": null, "place": "neighbourhood", "wikidata": null, "wikipedia": null, "wikimedia_commons": null, "alt_name": null, "alt_name:bn": null, "alt_name:en": null, "place:bn": null, "name:hi": null }, "geometry": { "type": "Point", "coordinates": [ 88.4042196, 22.6237746 ] } },
{ "type": "Feature", "properties": { "@id": "node/11126031785", "@relations": null, "name": "Keshtopur", "name:bn": null, "name:en": null, "place": "suburb", "wikidata": "Q6395243", "wikipedia": "en:Kestopur", "wikimedia_commons": "File:Picture_of_Kestopur_bus_stop.jpg", "alt_name": "Kestopur", "alt_name:bn": null, "alt_name:en": null, "place:bn": null, "name:hi": null }, "geometry": { "type": "Point", "coordinates": [ 88.4338521, 22.5973333 ] } },
{ "type": "Feature", "properties": { "@id": "node/11227831829", "@relations": null, "name": "Nagerbazar", "name:bn": null, "name:en": null, "place": "suburb", "wikidata": null, "wikipedia": null, "wikimedia_commons": null, "alt_name": null, "alt_name:bn": null, "alt_name:en": null, "place:bn": null, "name:hi": null }, "geometry": { "type": "Point", "coordinates": [ 88.4139318, 22.6228349 ] } },
{ "type": "Feature", "properties": { "@id": "node/11231291700", "@relations": null, "name": "Howrah Maidan", "name:bn": "হাওড়া ময়দান", "name:en": null, "place": "suburb", "wikidata": null, "wikipedia": null, "wikimedia_commons": null, "alt_name": null, "alt_name:bn": null, "alt_name:en": null, "place:bn": null, "name:hi": "हावड़ा मैदान" }, "geometry": { "type": "Point", "coordinates": [ 88.3333078, 22.5819734 ] } },
{ "type": "Feature", "properties": { "@id": "node/11260040607", "@relations": null, "name": "East Kolkata Wetlands", "name:bn": "পূর্ব কলকাতা জলাভূমি", "name:en": null, "place": "suburb", "wikidata": "Q3348702", "wikipedia": "en:East Kolkata Wetlands", "wikimedia_commons": "Category:East Calcutta Wetlands", "alt_name": "East Calcutta Wetlands", "alt_name:bn": null, "alt_name:en": null, "place:bn": null, "name:hi": null }, "geometry": { "type": "Point", "coordinates": [ 88.4390387, 22.5363359 ] } },
{ "type": "Feature", "properties": { "@id": "node/11283157996", "@relations": null, "name": "Bangur", "name:bn": null, "name:en": null, "place": "suburb", "wikidata": null, "wikipedia": null, "wikimedia_commons": null, "alt_name": null, "alt_name:bn": null, "alt_name:en": null, "place:bn": null, "name:hi": null }, "geometry": { "type": "Point", "coordinates": [ 88.4103461, 22.6074297 ] } },
{ "type": "Feature", "properties": { "@id": "node/11844894647", "@relations": null, "name": "Gorabazar", "name:bn": "গোরাবাজার", "name:en": null, "place": "suburb", "wikidata": null, "wikipedia": null, "wikimedia_commons": null, "alt_name": null, "alt_name:bn": null, "alt_name:en": null, "place:bn": null, "name:hi": null }, "geometry": { "type": "Point", "coordinates": [ 88.4133464, 22.634647 ] } }
]
}
